ID,School,ADDRESS,pincodes,REASON,CircleName,RegionName,DivisionName,OfficeName,OfficeType,Delivery,District,StateName,,COUNTA of ADDRESS,,REASON,,,,,,
3,"Stanford International Girls School, Ujjain","gram mindia ,Indore road, Ujjain,456001",456001,Existing School,Madhya Pradesh Circle,Indore Region,Ujjain Division,Ujjain H.O,HO,Delivery,UJJAIN,MADHYA PRADESH,,StateName,DivisionName,,Bloom,Existing School,GharWapisi,Hot Lead,Positive Demo,Grand Total
5,"Akshat International School, Ujjain","Akshat International School, Lalpur, Ujjain Dewas Rd, Nagziri, Ujjain, Madhya Pradesh 456664",456664,Existing School,Madhya Pradesh Circle,Indore Region,Ujjain Division,Bolasa B.O,BO,Delivery,UJJAIN,MADHYA PRADESH,, Total,,1,2,,1,,,4
52,The Honey Bees Public School,"Old RTO Building, Bacha Layout,Airforce Station Road,Bidar 585401.",585401,GharWapisi,Karnataka Circle,North Karnataka Region,Bidar Division,Bidar H.O,HO,Delivery,BIDAR,KARNATAKA,,ANDHRA PRADESH Total,,,,,1,4,,5
59,"Kalidas Montessori Nanakheda Branch, Ujjain","Kalidas Montessori Senior Sec. School, Rishi Nagar Ext. Near Brahmakumari Ashram, Ujjain 456010, Phone - 94071 30341, 98930 95848",456010,Existing School,Madhya Pradesh Circle,Indore Region,Ujjain Division,Ujjain M.L.Nagar S.O,PO,Delivery,UJJAIN,MADHYA PRADESH,,ARUNACHAL PRADESH Total,,,,,1,1,,2
75,KALIDAS MONTESSORI SENIOR SECONDARY SCHOOL,"Address–17,MILKIPURA, Bada teliwada,UJJAIN-456010, 89826 13275, 90395 13294",456010,Existing School,Madhya Pradesh Circle,Indore Region,Ujjain Division,Ujjain M.L.Nagar S.O,PO,Delivery,UJJAIN,MADHYA PRADESH,,ASSAM Total,,,,4,2,,,6
81,QMS Boys,Queen marys sr sec school ramnagar pushkar Road ajmer 305004,305004,Existing School,Rajasthan Circle,Ajmer Region,Ajmer Division,NODAL DELIVERY CENTRE,PO,Delivery,AJMER,RAJASTHAN,,BIHAR Total,,,,6,6,6,1,19
282,Om Shanti English Medium SChool,"Opp. Sardar Baug, Shanala Road, Punit Nagar, Morbi, Gujarat 363641, India",363641,GharWapisi,Gujarat Circle,Rajkot Region,Rajkot Division,Bagathala BO,BO,Delivery,MORBI,GUJARAT,,CHHATTISGARH Total,,,1,,1,3,,5
283,THE GRAMODAYA INTERNATIONAL COLLEGE,"727, Alyai, Mauranipur Jhansi 284204 U P",284204,GharWapisi,Uttar Pradesh Circle,Agra Region,Jhansi Division,Rora Bhatpura BO,BO,Delivery,JHANSI,UTTAR PRADESH,,DELHI Total,,,,,4,,,4
284,Kids Arena,"The Tree House, 6A/D, Pushtikar CHS, Patel estate road, Opp Harbour line station, Jogeshwari west, Mumbai 400102, Ph 9821052249",400102,Existing School,Maharashtra Circle,Mumbai Region,Mumbai City North West Division,Jogeshwari West SO,PO,Delivery,MUMBAI SUBURBAN,MAHARASHTRA,,GUJARAT Total,,,1,2,6,5,,14
287,Kids Gurukul,"Plot No. 111 Parshpuram Apartment, Jay Nagar, Near Omkareshwar Temple, Jalgaon 425001, Minal Mam- 8208057602, Kruti Mam - 9823495225",425001,Existing School,Maharashtra Circle,Aurangabad Region,Jalgaon Division,Jalgaon H.O,HO,Delivery,JALGAON,MAHARASHTRA,,HARYANA Total,,,,3,6,6,,15
291,"Sai International School, Solan, Himachal Pradesh","Kotla Nala Rd, Near degree college, Kotla Nala, Solan, Himachal Pradesh 173212",173212,GharWapisi,Himachal Pradesh Circle,DivReportingCircle,Solan Division,Damkari BO,BO,Delivery,SOLAN,HIMACHAL PRADESH,,HIMACHAL PRADESH Total,,,,4,6,2,1,13
314,Ken International,"Ken International Girls School Chak Jayrampur behind Sanchi Dugdh Sangh Maxi Road Ujjain, Pin code 456010, Mob.no. 7974761294",456010,Existing School,Madhya Pradesh Circle,Indore Region,Ujjain Division,Ujjain M.L.Nagar S.O,PO,Delivery,UJJAIN,MADHYA PRADESH,,JAMMU AND KASHMIR Total,,,,4,2,3,,9
393,"Genius Global School, Solan , Himachal Pradesh","Genius Global School, 194, Anand Vihar,Saproon, Solan (H.P.) , Pincode - 173211, Phone - 9816277154, 7778800054",173211,Existing School,Himachal Pradesh Circle,DivReportingCircle,Solan Division,Barog RSBO,BO,Delivery,SOLAN,HIMACHAL PRADESH,,JHARKHAND Total,,,,5,2,2,,9
394,RN FOUNDATION LITTLE HEART SCHOOL JAMSHEDPUR,"Kedo, Narwaphar, Near Sundernagar, Jamshedpur, Jharkhand 832111",832111,GharWapisi,Jharkhand Circle,DivReportingCircle,Singhbhum Division,Narwa Mines SO,PO,Delivery,EAST SINGHBUM,JHARKHAND,,KARNATAKA Total,,,,1,12,7,,20
395,Maharana Pratap Public School Noida,"Vandana Enclave, Khora, Ghaziabad 201001 (U.P), India
+91-9818690071",201001,GharWapisi,Uttar Pradesh Circle,Lucknow HQ Region,Ghaziabad Division,Ghaziabad HO,HO,Delivery,GHAZIABAD,UTTAR PRADESH,,KERALA Total,,,,,1,1,,2
396,ST JOSEPHS ACADEMY-SR JUDE,"ST. JUDE'S ACADEMY, SONIPAT
CHURCH ROAD, NARENDER NAGAR, SONIPAT, HARYANA - 131001",131001,GharWapisi,Haryana Circle,DivReportingCircle,Sonepat Division,Rathdhana BO,BO,Delivery,SONIPAT,HARYANA,,LADAKH Total,,,,,1,,,1
400,"K K Blossoms High School, Solan, Himachal Pradesh","Rabon Solan, NH-22, Near Housing Board p.o Saproon near Bhagat bank rabon branch, Himachal Pradesh 173211",173211,GharWapisi,Himachal Pradesh Circle,DivReportingCircle,Solan Division,Barog RSBO,BO,Delivery,SOLAN,HIMACHAL PRADESH,,MADHYA PRADESH Total,,,155,21,22,15,3,216
401,Himalaya Inter college-Prakash karki,"NH309A, Chaukori,Uttarakhand 262531",262531,Existing School,Uttarakhand Circle,DivReportingCircle,Pithoragarh Division,Belkote BO,BO,Delivery,PITHORAGARH,UTTARAKHAND,,MAHARASHTRA Total,,,,13,12,5,,30
404,QMS Nasirabad,"Nandla, Nasirabad, Dist Ajmer, Rajasthan, Ajmer, Rajasthan 305601",305601,Existing School,Rajasthan Circle,Ajmer Region,Beawar Division,Sanod B.O,BO,Delivery,AJMER,RAJASTHAN,,MANIPUR Total,,,,,,1,,1
405,QMS Girls,"Queen Mary's Girls School, B K Kaul Nagar, Pushkar Road, Ajmer 305001",305001,Existing School,Rajasthan Circle,Ajmer Region,Ajmer Division,Ajmer H.O,HO,Delivery,AJMER,RAJASTHAN,,MIZORAM Total,,,,,1,,,1
421,SSK Public School-Kunal Katkade,"Bramhanwade, Jaigaon Road, Wadzire, Jaygaon, Sinnar, Nashik, 422102",422102,GharWapisi,Maharashtra Circle,Navi Mumbai Region,Nasik Division,Jaigaon B.O,BO,Delivery,NASHIK,MAHARASHTRA,,ODISHA Total,,,,1,3,3,,7
422,"DG Agrawal Memorial, Pimpalner","Smt. D.G.Agrawal Memorial English Medium School,Indira Nagar,Pimplner. P. O.Tal. Sakri,Dist. Dhule ,Maharashta ,Pin - 424306",424306,Existing School,Maharashtra Circle,Aurangabad Region,Dhule Division,Chikase B.O,BO,Delivery,DHULE,MAHARASHTRA,,PUNJAB Total,,,,,4,5,1,10
425,"BRDM Public School, Haryana:Varun jain","Shora Kothi, Jind Rd, Kaithal, Haryana 136027, India",136027,GharWapisi,Haryana Circle,DivReportingCircle,Kurukshetra Division,Geong B.O,BO,Delivery,KAITHAL,HARYANA,,RAJASTHAN Total,,,,20,10,11,,41
430,"Twinkle Star School, Gandhidham, Kutch, Gujarat","Ward 2B, Adipur, Gandhidham, Gujarat 370205",370205,GharWapisi,Gujarat Circle,Rajkot Region,Kutch Division,Sinay BO,BO,Delivery,KACHCHH,GUJARAT,,TAMIL NADU Total,,,,2,3,2,1,8
432,Rainbow India School-P S Bhati,"Plot no 13, dharmadeep park,bhuj kutch Gujarat,370001",370001,Existing School,Gujarat Circle,Rajkot Region,Kutch Division,Nirona BO,BO,Delivery,KACHCHH,GUJARAT,,TELANGANA Total,,,1,1,3,2,,7
502,Shivam Public School,"Shivam Public School, Shivam nagar Dhakar mod khurja, Pin :- 203131",203131,Existing School,Uttar Pradesh Circle,Agra Region,Bulandshahar Division,Bhatwara BO,BO,Delivery,BULANDSHAHR,UTTAR PRADESH,,TRIPURA Total,,,,1,1,,,2
503,Shivam Global School,"Shivam Global School, Khurja Junction, Bulandshahr (UP), Pin code- 203131.",203131,Existing School,Uttar Pradesh Circle,Agra Region,Bulandshahar Division,Bhatwara BO,BO,Delivery,BULANDSHAHR,UTTAR PRADESH,,UTTAR PRADESH Total,,,,25,20,21,4,70
505,"St. Maryam Public School, Jhasi (Senior)",103/A NEAR TELEPHONE EXCHANGE VEERANGNA NAGAR JDA COLONY MEDICAL ROAD JHANSI (Pin - 284128),284128,Existing School,Uttar Pradesh Circle,Agra Region,Jhansi Division,Kochha Bhanwar BO,BO,Delivery,JHANSI,UTTAR PRADESH,,UTTARAKHAND Total,,,,2,1,,,3
511,My planet PreSchool-ANOOP KASHYAP,"35, Kavi Kalidas Marg, GANESH PURA, Ujjain, Madhya Pradesh 456001",456001,GharWapisi,Madhya Pradesh Circle,Indore Region,Ujjain Division,Ujjain H.O,HO,Delivery,UJJAIN,MADHYA PRADESH,,WEST BENGAL Total,,,,6,1,6,1,14
521,virgin mary school ujjain,"Virgin Mary H S School, 157, Mangal Colony , Udyan Marg , Sethi Nagar Ujjain, Pincode - 456001, Contact: 7000187472",456001,Existing School,Madhya Pradesh Circle,Indore Region,Ujjain Division,Ujjain H.O,HO,Delivery,UJJAIN,MADHYA PRADESH,,Grand Total,,1,160,121,133,111,12,538
525,Gateway International High School,"Postal address:- M.RAJASHEKHAR REDDY, Gateway International High school, Budwel,Rajendranagar, Hyderabad-30,Pin code - 500030, Ph no:8886085556/9133443300",500030,Existing School,Telangana Circle,Hyderabad City Region,Hyderabad South East Division,Rajendranagar S.O,PO,Delivery,RANGA REDDY,TELANGANA,,,,,,,,,,976
702,Oil valley Girls and Boys School,"Oil Valley Girls' & Boys' School, (CBSE) Banipur, Hatimurah, P.O. DIBRUGARH, Assam 786003.",786003,Existing School,Assam Circle,Dibrugarh Region,Dibrugarh Division,Bhurburi B.O,BO,Delivery,DIBRUGARH,ASSAM,,,,,,,,,,
1666,Rungta International School-Mrs.Nandini Dasgupta,"RIS Building, behind Nandan Van, Veer Savarkar Nagar, Raipur, Chhattisgarh 492099",492099,Hot Lead,Chattisgarh Circle,DivReportingCircle,Raipur Division,Tenduwa BO,BO,Delivery,RAIPUR,CHHATTISGARH,,,,,,,,,,
2488,Prabhu Dayal Vidyalaya Kurukshetra,"H No. 1635, Sector - 13, Urban Estate, Kurukshetra HARYANA, Pin Code - 136118",136118,Existing School,Haryana Circle,DivReportingCircle,Kurukshetra Division,Kurukshetra H.O,HO,Delivery,KURUKSHETRA,HARYANA,,,,,,,,,,
3264,OM SHANTI ENGLISH MEDIUM SCHOOL(GSEB)(oseme),"Rajkot - Morbi Highway, B/h Solar Clock, Shanala, Morbi-363641, Gujara",363641,GharWapisi,Gujarat Circle,Rajkot Region,Rajkot Division,Bagathala BO,BO,Delivery,MORBI,GUJARAT,,,,,,,,,,
3897,Elite International School,"Elite International School, Near Civil Hospital Kandaghat,Pin code 173215 ,Contact 9780858487",173215,Existing School,Himachal Pradesh Circle,DivReportingCircle,Solan Division,Kawarag BO,BO,Delivery,SOLAN,HIMACHAL PRADESH,,,,,,,,,,
4707,GALAXY PUBLIC SCHOOL,"Railway Road, NAGROTA SURIAN, Kangra, Himachal Pradesh 176027 Contact-9816061009",176027,GharWapisi,Himachal Pradesh Circle,DivReportingCircle,Dehra Gopipur Division,Ludret BO,BO,Delivery,KANGRA,HIMACHAL PRADESH,,,,,,,,,,
7576,SKY HIGH PUBLIC SCHOOL-Mr.DHARMENDRA SINGH BHADORIYA,"Dabra Bhitarwar Road Kariyawati, Dabra Gwalior M.P 475110",475110,GharWapisi,Madhya Pradesh Circle,DivReportingCircle,Gwalior Division,Chinor B.O,BO,Delivery,GWALIOR,MADHYA PRADESH,,,,,,,,,,
7632,Billabong High International School,"BILLABONG HIGH INTERNATIONAL SCHOOL , MIST Campus, Limbodagari , Behind Aurobindo Hospital, Sanwer Road, Indore-453111, Phone - 9977073338",453111,Existing School,Madhya Pradesh Circle,Indore Region,Indore Moffusil Division,Alwasa B.O,BO,Delivery,INDORE,MADHYA PRADESH,,,,,,,,,,
7647,ILVA HIGHER SECONDARY SCHOOL-PROF H K JAIN,"31, Sapna Sangeeta Road, Behind Lotus, Sneh Nager, Navlakha, Indore, Madhya Pradesh 452001 Phone: 0731 246 0990",452001,Hot Lead,Madhya Pradesh Circle,Indore Region,Indore City Division,Indore G.P.O.,HO,Delivery,INDORE,MADHYA PRADESH,,,,,,,,,,
7675,NATIONAL PUBLIC SCHOOL-Mrs. VIJAY LAKSHMI KHATWANI,"Airport Rd, Opposite Bijasan Temple, HIlink City, Indore, Madhya Pradesh 452005",452005,GharWapisi,Madhya Pradesh Circle,Indore Region,Indore City Division,Bijasan Road S.O,PO,Delivery,INDORE,MADHYA PRADESH,,,,,,,,,,
8122,Aaradhya International School,"Munja Khedi, Narwar, Dewas-Ujjain Road, Ujjain (M.P.)-456664",456664,Existing School,Madhya Pradesh Circle,Indore Region,Ujjain Division,Bolasa B.O,BO,Delivery,UJJAIN,MADHYA PRADESH,,,,,,,,,,
8135,JOLLY MEMORIAL MISSION SCHOOL,"Jolly Memorial Mission School, Ora park colony, Near Sethi Nagar, Ujjain. Pin- 456010, Mob:- 7415415449",456010,Existing School,Madhya Pradesh Circle,Indore Region,Ujjain Division,Ujjain M.L.Nagar S.O,PO,Delivery,UJJAIN,MADHYA PRADESH,,,,,,,,,,
8136,KADAMBINI CHILDRENS ACADEMY,"Kadambini Children's Academy, A-55, Indira Nagar, Agar Road,Ujjain, pincode: 456010, 0734-2580423. 9893087678",456010,Existing School,Madhya Pradesh Circle,Indore Region,Ujjain Division,Ujjain M.L.Nagar S.O,PO,Delivery,UJJAIN,MADHYA PRADESH,,,,,,,,,,
8139,Lokmanya Tilak Higher Secondary School,"Lokmanya Tilak higher secondary school CBSE behind railway station neelganga ujjain, Pincode 456001",456001,Existing School,Madhya Pradesh Circle,Indore Region,Ujjain Division,Ujjain H.O,HO,Delivery,UJJAIN,MADHYA PRADESH,,,,,,,,,,
8337,Shinde International School,"Opp.Vijaya Bank, Bhadgaon Road, Pachora, Maharashtra 424201",424201,GharWapisi,Maharashtra Circle,Aurangabad Region,Jalgaon Division,Anturli Bk B.O,BO,Delivery,JALGAON,MAHARASHTRA,,,,,,,,,,
8501,DG Agrawal Nava Pur School,"Smt. D.G. Agrawal English Medium School Navapur, Mahalakshmi park NH6 Navapur Tal Navapur Dist. Nandurbar,Pincode 425418",425418,Existing School,Maharashtra Circle,Aurangabad Region,Dhule Division,Khokse B.O,BO,Delivery,NANDURBAR,MAHARASHTRA,,,,,,,,,,
9072,Venkateswar English Medium School,"Venkateswar English Medium School
35, Chandrasekharpur
Near Infocity Road and CTTC
Bhubaneswar, Odisha-751024",751024,Hot Lead,Odisha Circle,DivReportingCircle,Bhubaneswar Division,Kalarahanga B.O,BO,Delivery,KHORDHA,ODISHA,,,,,,,,,,
10247,Mangal Newton School,"Mangal Newton School , Hasti Complex 5th milestone Ajmer road, Beawar, Distt:- Ajmer , State :- Rajasthan ,Pin code :- 305901, Mobile no:- 9314284515, 8302406368",305901,Existing School,Rajasthan Circle,Ajmer Region,Beawar Division,Andheri Deori B.O,BO,Delivery,AJMER,RAJASTHAN,,,,,,,,,,
10366,EVERGREEN PUBLIC SCHOOL-MS SANGEETA BABEL,"Neelkanth Mahadev Colony, Shastri Nagar, Bhilwara, Rajasthan 311001",311001,Hot Lead,Rajasthan Circle,Ajmer Region,Bhilwara Division,Bhilwara H.O,HO,Delivery,BHILWARA,RAJASTHAN,,,,,,,,,,
10450,impulse english school,"NH-11, Agra Side Bypass Tiraha, Agra Road, Dausa Rajasthan, 303303",303303,Hot Lead,Rajasthan Circle,DivReportingCircle,Jaipur Moffusil Division,Hingotia BO,BO,Delivery,DAUSA,RAJASTHAN,,,,,,,,,,
10593,Dunes Academy - Jodhpur,"Indraprastha Nagar, Tehsil Aau, District Phalodi, City Jodhpur, Rajasthan, INDIA – 342301",342301,GharWapisi,Rajasthan Circle,Jodhpur Region,Jodhpur Division,Bari Baori BO,BO,Delivery,JODHPUR,RAJASTHAN,,,,,,,,,,
10670,Cambridge Public School,"Cambridge Shiksha Samiti Simani
Sivani (
Peeo Kalakhari
Buhana
Jhunjhunu
Rajasthan. pincode: 333502",333502,GharWapisi,Rajasthan Circle,Jodhpur Region,Jhunjhunu Division,Badbar B.O,BO,Delivery,JHUNJHUNU,RAJASTHAN,,,,,,,,,,
10982,Shree SudhaSagar Digamber Jain Vidya Vihar Senior Secondary School-Anand Soni,"Shri SudhaSagar Digamber Jain Vidhya Vihar senior secondary school,Sapanda Road,Kekri - 305404",305404,Existing School,Rajasthan Circle,Ajmer Region,Beawar Division,Bharai B.O,BO,Delivery,AJMER,RAJASTHAN,,,,,,,,,,
11256,SNS ACADEMY COIMBATORE,"538, THUDIYALUR-SARAVANAMPATTI ROAD, VELLAKINAR, COIMBATORE-641029,",641029,Existing School,Tamilnadu Circle,"Western Region, Coimbatore",Coimbatore Division,Vellakinar BO,BO,Delivery,COIMBATORE,TAMIL NADU,,,,,,,,,,
12657,THE KHAITAN SCHOOL-MRS DAVINDER KAUR,"Block F, 1A/A, F Block, Sector 40, Noida, Uttar Pradesh 201303",201303,Hot Lead,Uttar Pradesh Circle,Lucknow HQ Region,Ghaziabad Division,Sec37 Noida SO,PO,Delivery,GAUTAM BUDDHA NAGAR,UTTAR PRADESH,,,,,,,,,,
12747,J.R. Global International Junior High School - Mr.Kuljeet,"JR Global International School, Address Sablu Garhi, Near Kharkhari RLY.STN, DELHI- NCR, Loni, Ghaziabad, Uttar Pradesh-201102",201102,Existing School,Uttar Pradesh Circle,Lucknow HQ Region,Ghaziabad Division,Behta Hazipur BO,BO,Delivery,GHAZIABAD,UTTAR PRADESH,,,,,,,,,,
13342,"Green Willow Public School, Mathura -UP","Green Willow Public School , NH-19, Navada, Mathura (U.P.) India – 281006, +91-8191000449, =+91-8191000443",281006,Existing School,Uttar Pradesh Circle,Agra Region,Mathura Division,Adooki BO,BO,Delivery,MATHURA,UTTAR PRADESH,,,,,,,,,,
13646,SHIKHAR SHIKSHA SADAN HIGHER SECONDARY SCHOOL,"Miranpur, Muzaffarnagar, NH-119, Meerut Pauri National Highway, Muzaffarnagar, Muzaffarnagar, Uttar Pradesh 251315 Contact - 8700150392",251315,Positive Demo,Uttar Pradesh Circle,Bareilly Region,Muzaffarnagar Division,Bhooma BO,BO,Delivery,MUZAFFARNAGAR,UTTAR PRADESH,,,,,,,,,,
13659,Suryadev International School,Shiv Kumar C/O Surya Dev International School 69 Gher Khatti New Mandi Muzaffarnagar 251001 UP,251001,Existing School,Uttar Pradesh Circle,Bareilly Region,Muzaffarnagar Division,Bagowali BO,BO,Delivery,MUZAFFARNAGAR,UTTAR PRADESH,,,,,,,,,,
14338,BR New Modern School:Gopal sir,"Agency chowk, Pauri Garhwal, Uttaranchal, India 246001",246001,GharWapisi,Uttarakhand Circle,DivReportingCircle,Pauri Division,Jamnakhal BO,BO,Delivery,PAURI GARHWAL,UTTARAKHAND,,,,,,,,,,
64492,Sanskaar Public School,DIWADIYA BLOCK- ICHHAWAR SEHORE (MP)-466115,466115,Existing School,Madhya Pradesh Circle,Indore Region,Sehore Division,Bhaukhedi B.O,BO,Delivery,SEHORE,MADHYA PRADESH,,,,,,,,,,
64808,"GURUKUL- The Real English Medium School (BADWANI) NEWALI ROAD, SENDHWA","Niwali Rd, Sendhwa, Barwani, Madhya Pradesh 451666",451666,GharWapisi,Madhya Pradesh Circle,Indore Region,Khandwa Division,Balwadi B.O,BO,Delivery,BARWANI,MADHYA PRADESH,,,,,,,,,,
64874,Golden Dale School Begusarai,"Golden dale school, At- Ballia Block campus , Near Pashu hospital , District- Begusarai, Pin - 851211",851211,Existing School,Bihar Circle,"East Region, Bhagalpur",Begusarai Division,Ballia Bazar BO,BO,Delivery,BEGUSARAI,BIHAR,,,,,,,,,,
64941,"Sant Sunder Singh Sen. Sec. School, Ludhiana","boparai link road, Dhatt, Punjab 141422",141422,GharWapisi,Punjab Circle,DivReportingCircle,Ludhiana Moffusil Division,Raqba BO,BO,Delivery,LUDHIANA,PUNJAB,,,,,,,,,,
64995,MGM School -Bokaro,"Sector 4-F, near Central Bank of India, Sector 4-F, Sector 4, Bokaro Steel City, Jharkhand 827004",827004,Hot Lead,Jharkhand Circle,DivReportingCircle,Dhanbad Division,Sector IV SO,PO,Delivery,BOKARO,JHARKHAND,,,,,,,,,,
65078,St Philomena English School,"Subbana Layout, Doddabommasandra, Vidyaranyapura, Bangalore - 560097 (Near Bel Quartz)",560097,GharWapisi,Karnataka Circle,Bengaluru HQ Region,Bengaluru West Division,Vidyaranyapura S.O,PO,Delivery,BENGALURU URBAN,KARNATAKA,,,,,,,,,,
65093,"sardar patel international school,indore",SHANTI VIHAR COLONY INDORE KANADIA ROAD MADHYA PRADESH 452016,452016,GharWapisi,Madhya Pradesh Circle,Indore Region,Indore City Division,Buranakhedi B.O,BO,Delivery,INDORE,MADHYA PRADESH,,,,,,,,,,
65115,"Uma Devi Acadmey, Mohammadi","Uma Devi Children's Academy, Gulauly Road, Mohammadi Kheri Pin :- 262804",262804,Existing School,Uttar Pradesh Circle,Bareilly Region,Kheri Division,Ajehra BO,BO,Delivery,KHERI,UTTAR PRADESH,,,,,,,,,,
65151,Vasavi public school Gurmitkal Karnataka,"behind Bus Stand Gurumitkal, Karnataka 585214",585214,GharWapisi,Karnataka Circle,North Karnataka Region,Kalaburagi Division,Buragpalli B.O,BO,Delivery,KALABURAGI,KARNATAKA,,,,,,,,,,
65152,Lotus Valley School,"Expressway, Sector 126, Noida, UP 201313",201313,GharWapisi,Uttar Pradesh Circle,Lucknow HQ Region,Ghaziabad Division,Amity university SO,PO,Delivery,GAUTAM BUDDHA NAGAR,UTTAR PRADESH,,,,,,,,,,
65155,"B.P.children Public School CBSE school ,indore,CHOTA BANGDADA, INDORE RURAL","Jamburdi Hapsi Rd, Nainod Village, Bada Bangarda, Indore, Madhya Pradesh 453112",453112,GharWapisi,Madhya Pradesh Circle,Indore Region,Indore Moffusil Division,Jamburdi Hapsi B.O,BO,Delivery,INDORE,MADHYA PRADESH,,,,,,,,,,
65184,"Sandhya Senior Secondary Public School, Delhi","C-182/12 Brahampuri Main Road, Opposite Gali no:-1, Delhi, India, 110053",110053,GharWapisi,Delhi Circle,DivReportingCircle,Delhi East Division,Seelampur SO,PO,Delivery,NORTH EAST,DELHI,,,,,,,,,,
65192,Carmel High School Thane:Lawrence RA,"Tikuji Ni Wadi Rd, C, Manpada, Thane West, Thane, Maharashtra 400610",400610,GharWapisi,Maharashtra Circle,Navi Mumbai Region,Thane Division,Apna Bazar S.O,PO,Delivery,THANE,MAHARASHTRA,,,,,,,,,,
65193,Chhatrapati Raje Sambhaji School:Ganesh Ghotne,"H-3 Block, Deonar Municipal Colony, Deonar, Govandi East, Mumbai, Maharashtra 400043",400043,GharWapisi,Maharashtra Circle,Mumbai Region,Mumbai City North East Division,Shivaji Nagar SO Mumbai,PO,Delivery,MUMBAI SUBURBAN,MAHARASHTRA,,,,,,,,,,
65196,Mom’s Pride Education Society,"Mini bypass road, Near Delhi Pul, Sirsa - 125055",125055,Existing School,Haryana Circle,DivReportingCircle,Hissar Division,Ahmedpur BO,BO,Delivery,SIRSA,HARYANA,,,,,,,,,,
65203,Dr Rajeev Modern Public School: Rajeev Varma,"Dr Rajeev Modern Public School, SDM Colony Near Block Gate and Pitamberpur Station Faridpur, Pin code 243503",243503,Existing School,Uttar Pradesh Circle,Bareilly Region,Bareilly Division,Faiznagar BO,BO,Delivery,BAREILLY,UTTAR PRADESH,,,,,,,,,,
65206,Young master Mind,"Nizamsagar Road, Vidya Nagar Colony, Kamareddy - 503111",503111,GharWapisi,Telangana Circle,Hyderabad Region,Nizamabad Division,Kamareddy H.O,HO,Delivery,KAMAREDDY,TELANGANA,,,,,,,,,,
65212,Red Apple School: Nadiad Gujrat,"AT TUNDEL, PIJ ROAD, N.H.NO.8, Nadiad, Gujarat 387355",387355,GharWapisi,Gujarat Circle,Vadodara Region,Kheda Division,Akhdol BO,BO,Delivery,KHEDA,GUJARAT,,,,,,,,,,
65213,Imran khan:GAFOOR EDUCATION CENTRE,"GAFOOR EDUCATION CENTRE, Amauli, Fatehpur U.P. 212631,",212631,GharWapisi,Uttar Pradesh Circle,Kanpur Region,Fatehpur Division,Birnai BO,BO,Delivery,FATEHPUR,UTTAR PRADESH,,,,,,,,,,
65216,Dev academy -,"Kushwaha Market, near Bus Depot, Hasari, Jhansi, Uttar Pradesh 284135",284135,GharWapisi,Uttar Pradesh Circle,Agra Region,Jhansi Division,Bijauli BO,BO,Delivery,JHANSI,UTTAR PRADESH,,,,,,,,,,
65223,Milan Sir:Spectrum,,,GharWapisi,,,,,,,,,,,,,,,,,,
65242,Grace mission International School,"Ujjain - Maksi Rd, Madhya Pradesh 456661",456661,GharWapisi,Madhya Pradesh Circle,Indore Region,Ujjain Division,Badkummed B.O,BO,Delivery,UJJAIN,MADHYA PRADESH,,,,,,,,,,
65243,Ivy International Preschool,"Hoshangabad Rd, Near Pebble Bay, Shri Rameshwaram, Katara, Bhopal, Madhya Pradesh 462043",462043,GharWapisi,Madhya Pradesh Circle,DivReportingCircle,Bhopal Division,Bag Mungalia S.O,PO,Delivery,BHOPAL,MADHYA PRADESH,,,,,,,,,,
65246,Vivekanand Public School,"UJJWALA BHOYAR, ADDRESS :- AAKARSH CAREER INSTITUTE PVT LTD, 2ND FLOOR,57, PRADIP, BUILDING,MOUNT ROAD, SADAR NAGPUR, MAHARASHTRA 440001., Mob. 7020125296",440001,Existing School,Maharashtra Circle,Nagpur Region,Nagpur City Division,Nagpur GPO,HO,Delivery,NAGPUR,MAHARASHTRA,,,,,,,,,,
65247,"Neuron Labs, Pune","Neuron Labs School, Survey no 19, Behind Vitthal Mandir, Before 10 Vrindavan Society, Dhanori, Pune - 411015, Contact no. 09545008800",411015,Existing School,Maharashtra Circle,Pune Region,Pune City East Division,Dhanori B.O,BO,Delivery,PUNE,MAHARASHTRA,,,,,,,,,,
65250,Tapovan International School,"Ahmedabad-Mehsana Express Highway Dholasan, Road, Linch, Gujarat 384435",384435,GharWapisi,Gujarat Circle,Ahmedabad HQ Region,Mahesana Division,Ambasan BO,BO,Delivery,MAHESANA,GUJARAT,,,,,,,,,,
65254,Shree Santoshi Global School,"26, Shyam residency, Nr. SSGS Preschool, SSGS Preschool Rd, Bavla, Gujarat 382220",382220,Existing School,Gujarat Circle,Ahmedabad HQ Region,Gandhinagar Division,Daran BO,BO,Delivery,AHMADABAD,GUJARAT,,,,,,,,,,
65258,The Royal International school,"Near Regal Guest House, Santipur, Mecheda, Purba Medinipur, West Bengal, Pin - 721137",721137,GharWapisi,West Bengal Circle,South Bengal Region,Tamluk Division,Ballukhat BO,BO,Delivery,MEDINIPUR EAST,WEST BENGAL,,,,,,,,,,
65266,"GdGoenka Lapetite Lohia Nagar, Ghaziabad","Gd Goenka La Petite, C-3, Lohia Nagar, Gzb,Pin code - 201001,Phone - 9953998904, 7838360542",201001,Existing School,Uttar Pradesh Circle,Lucknow HQ Region,Ghaziabad Division,Ghaziabad HO,HO,Delivery,GHAZIABAD,UTTAR PRADESH,,,,,,,,,,
65267,"Horizons-The School, Ghaziabad","Villa 35, GH-7 Society, Crossings Republik, Ghaziabad, Uttar Pradesh 201016",201016,GharWapisi,Uttar Pradesh Circle,Lucknow HQ Region,Ghaziabad Division,Crossings Republik SO,PO,Delivery,GHAZIABAD,UTTAR PRADESH,,,,,,,,,,
65273,Bharti Vidya Bhawan (BVB) Banswara : Piyush Nagawat,"Bharti Vidhya Bhawan sr sec school, Ratitalai link road,Banswara rajasthan 327001",327001,Existing School,Rajasthan Circle,Ajmer Region,Dungarpur Division,Jhupel B.O,BO,Delivery,BANSWARA,RAJASTHAN,,,,,,,,,,
65289,STAR PLANET SCHOOL,"19, Kamio Rd, Indus Towne, Ratanpur Sadak, Bhopal, Madhya Pradesh 462026",462026,GharWapisi,Madhya Pradesh Circle,DivReportingCircle,Bhopal Division,Bawadia Kalan B.O,BO,Delivery,BHOPAL,MADHYA PRADESH,,,,,,,,,,
65293,A G Mission School,"Chandpur, District Nayagarh, Odisha- 752024. India
Contact 918696993399",752024,GharWapisi,Odisha Circle,DivReportingCircle,Puri Division,Champagarh B.O,BO,Delivery,NAYAGARH,ODISHA,,,,,,,,,,
65305,MRS Shri Krishna Pranami School:Anil Dadhich,CITY- CHIRAWA DIST.- JHUNJHUNU (RAJ) PIN NO. -333026,333026,GharWapisi,Rajasthan Circle,Jodhpur Region,Jhunjhunu Division,Bamanwas B.O,BO,Delivery,JHUNJHUNU,RAJASTHAN,,,,,,,,,,
65312,Annpurna Bal Vinay Mandir High School: Sagar pandya,"393, Kulkarni Ka Bhatta, Kalyanmill Naka, Pardesipura, Indore - 452003, Near MP Government School",452003,Hot Lead,Madhya Pradesh Circle,Indore Region,Indore City Division,Vallabhnagar S.O (Indore),PO,Delivery,INDORE,MADHYA PRADESH,,,,,,,,,,
65330,Mothers Love School:prateek nagpal sir,"4/67 , Bengali Colony , Near Kali Badi Road , Mahavir Enclave. Delhi - 110045",110045,GharWapisi,Delhi Circle,DivReportingCircle,New Delhi West Division,Nasirpur B.O,BO,Delivery,SOUTH WEST,DELHI,,,,,,,,,,
65336,Gems Academic School,Closed ops in INdia,,GharWapisi,,,,,,,,,,,,,,,,,,
65350,Bharat International School,"Near Bharat City, Tila More, Loni Road Ghaziabad, Uttar Pradesh 201102, India",201102,GharWapisi,Uttar Pradesh Circle,Lucknow HQ Region,Ghaziabad Division,Behta Hazipur BO,BO,Delivery,GHAZIABAD,UTTAR PRADESH,,,,,,,,,,
65351,Gurukul Academy Dholpur:Saurabh Agrawal Sir,"Pushp vatika, hundawal road, Dhaulpur, India, Rajasthan 328001",328001,GharWapisi,Rajasthan Circle,DivReportingCircle,Dholpur Division,Tor BO,BO,Delivery,DHOLPUR,RAJASTHAN,,,,,,,,,,
65354,"Gemford World School - Malappuram,Karela","Illathkunnu road, Thiruvaly, Manjeri, Kerala 676123",676123,GharWapisi,Kerala Circle,Calicut Region,Manjeri Division,Amayur BO,BO,Delivery,MALAPPURAM,KERALA,,,,,,,,,,
65358,Aatmdeep Vidyalaya,"Aatmdeep vidyalaya, Siktaur , Near Deoria bypass , Gorakhpur, Pin code - 273010, Contact no . 8853210002 , 9935703444",273010,Existing School,Uttar Pradesh Circle,Gorakhpur Region,Gorakhpur Division,Jungle Chauri BO,BO,Delivery,GORAKHPUR,UTTAR PRADESH,,,,,,,,,,
65360,"Royal Public School, Ajmer","Shri Balaji Royal Public school Foy Sagar road chamunda chowraha Ajmer,305005",305005,Existing School,Rajasthan Circle,Ajmer Region,Ajmer Division,Hatikhera B.O,BO,Delivery,AJMER,RAJASTHAN,,,,,,,,,,
65365,Central Academy Ajmer,"Sudhakar kumar, CENTRAL ACADEMY, PRAGATI NAGAR KOTRA, AJMER RAJASTHAN, 305004",305004,Existing School,Rajasthan Circle,Ajmer Region,Ajmer Division,NODAL DELIVERY CENTRE,PO,Delivery,AJMER,RAJASTHAN,,,,,,,,,,
65376,Musab High School:Abdul Rahman:MHS,"Sai Nagar Rd, Sai Nagar, Hafeezpet, Hyderabad, Telangana 500049
 Contact 09963652341",500049,GharWapisi,Telangana Circle,Hyderabad City Region,Secunderabad Division,Miyapur S.O,PO,Delivery,MEDCHAL MALKAJGIRI,TELANGANA,,,,,,,,,,
65387,Academic Global School,"Near, Buxar-Sikraul Road, 11 No. LKH, Buxar, Bihar 802103",802103,GharWapisi,Bihar Circle,DivReportingCircle,Bhojpur Division,Boksa BO,BO,Delivery,BUXAR,BIHAR,,,,,,,,,,
65394,Garnet Education Private Limited,,,GharWapisi,,,,,,,,,,,,,,,,,,
65400,Ayush Public School,"Ayush Public School, Near PWD colony, Town: Jakhalabandha District: Nagaon, State: Assam. Post office: Jakhalabandha, Pin code: 782136.",782136,Existing School,Assam Circle,Dibrugarh Region,Nagaon Division,Kuthori B.O,BO,Delivery,NAGAON,ASSAM,,,,,,,,,,
65406,Palm International School,Palm International School Bariatu Ranchi - 834009 Jharkhand,834009,Existing School,Jharkhand Circle,DivReportingCircle,Ranchi Division,Lame Baragaon BO,BO,Delivery,RANCHI,JHARKHAND,,,,,,,,,,
65411,Shivam College of Education,"STC Campus, Junction Road,Khurja, Distt- Bulandshahr, UP -Pincode - 203131",203131,Existing School,Uttar Pradesh Circle,Agra Region,Bulandshahar Division,Bhatwara BO,BO,Delivery,BULANDSHAHR,UTTAR PRADESH,,,,,,,,,,
65433,kids fountain play school- sanjay,"Purvanchal Royal City, Plot No. GH-05 Sector CHI-V, Greater Noida 201310",201310,Hot Lead,Uttar Pradesh Circle,Lucknow HQ Region,Ghaziabad Division,Sakipur BO,BO,Delivery,GAUTAM BUDDHA NAGAR,UTTAR PRADESH,,,,,,,,,,
65438,imam international school,IIS Campus (Sugia bazar ) Sugia Kesarri Sheohar 843329,843329,GharWapisi,Bihar Circle,Muzaffarpur Region,Sitamarhi Division,Hiramma BO,BO,Delivery,SHEOHAR,BIHAR,,,,,,,,,,
65439,Aadharshila Inventive Global School,"AADHARSHILA INVENTIVE ENGLISH SCHOOL, BHATON KA BASS MURLIDHAR VYAS NAGAR ROAD BIKANER, LAND MARK :- VIVEK BAL NIKETAN SCHOOL, MOB: 8005718087, Pincode - 334001",334001,Existing School,Rajasthan Circle,Jodhpur Region,Bikaner Division,Gusainsar B.O,BO,Delivery,BIKANER,RAJASTHAN,,,,,,,,,,
65447,"Millennium Dream International School, Umashankar Chaturvedi","45, Beohari, Madhya Pradesh 484774",484774,GharWapisi,Madhya Pradesh Circle,Jabalpur Region,Shahdol Division,Barachh B.O,BO,Delivery,SHAHDOL,MADHYA PRADESH,,,,,,,,,,
65452,JUNIOR CAMBRIDGE SCHOOL,"Junior Cambridge School, Vidya Bhavan Main Road Niche Bazar Simdega Jharkhand - 835223 Phone: 8210284534",835223,Existing School,Jharkhand Circle,DivReportingCircle,Ranchi Division,Jokbahar BO,BO,Delivery,SIMDEGA,JHARKHAND,,,,,,,,,,
65521,IK Model School,"IK Model School, Kaushis Vihar, Bypass Rd, Raxaul, Bihar 845305, +91 91222 88811, +91 93823 43321",845305,Existing School,Bihar Circle,Muzaffarpur Region,East Champaran Division,Gonaha BO,BO,Delivery,PURBI CHAMPARAN,BIHAR,,,,,,,,,,
65653,"Lotus Valley School, Ajmer - Mr.Ajay Singh Rajput","M.S Rawat Colony, Chamunda Chauraha, Foy Sagar Rd, Ajmer, Rajasthan 305005",305005,Hot Lead,Rajasthan Circle,Ajmer Region,Ajmer Division,Hatikhera B.O,BO,Delivery,AJMER,RAJASTHAN,,,,,,,,,,
65679,"Oxford School, Haryana - N K sharma","Daulatpur Road, Uklana Mandi, Hisar, Haryana, India (125113)",125113,GharWapisi,Haryana Circle,DivReportingCircle,Hissar Division,Litani BO,BO,Delivery,HISAR,HARYANA,,,,,,,,,,
65690,"The Crescent School, Kaptanganj","Dr Mohd Hasib , Main Branch, The Crescent School, Chilwan, Tahsil KAPTANGANJ, Kushinagar U.P. 274301",274301,Existing School,Uttar Pradesh Circle,Gorakhpur Region,Deoria Division,Atharaha BO,BO,Delivery,KUSHI NAGAR,UTTAR PRADESH,,,,,,,,,,
65748,Twinkling Star School,"Twinkling Star School 
Shahu nagar,
Samrat Chowk,
Beed 431122",431122,GharWapisi,Maharashtra Circle,Aurangabad Region,Beed Division,Beed H.O,HO,Delivery,BEED,MAHARASHTRA,,,,,,,,,,
65763,SARVODAYA GROUP OF INSTITUTIONS,"Vill-Ghumchi,Post-Dindai,Distt-Siddharthnagar, UP, Pin-272151, Contact - 9919455903",272151,Positive Demo,Uttar Pradesh Circle,Gorakhpur Region,Basti Division,Sagra BO,BO,Delivery,BASTI,UTTAR PRADESH,,,,,,,,,,
65811,Shyama devi public school,"Shyama devi public school, Village Babhnauli post Barawa Bazar District Kushinagar UP 274305",274305,Existing School,Uttar Pradesh Circle,Gorakhpur Region,Deoria Division,Amwa Bazar BO,BO,Delivery,KUSHI NAGAR,UTTAR PRADESH,,,,,,,,,,
65817,The New Heights Academy,"3""N, Gali Number 6, Uttar Pradesh 132001",132001,GharWapisi,Haryana Circle,DivReportingCircle,Karnal Division,Canal Colony B.O,BO,Delivery,KARNAL,HARYANA,,,,,,,,,,
65859,"Bafna Charitable Trust, Aurangabad","THE EVOLVERS NEST PRESCHOOL, A/7/A, MIDC CHIKALTHANA AURANGABAD - 431001, Mob. 77200 25133",431001,Existing School,Maharashtra Circle,Aurangabad Region,Aurangabad Division,Aurangabad (MH) H.O,HO,Delivery,AURANGABAD,MAHARASHTRA,,,,,,,,,,
65893,Rajwanshi Sr. Sec. School/Suresh Kumar,"Narnaul Ho, Narnaul - 123001 (Vpo Dohcana, Dist M/Garh, Haryana",123001,Hot Lead,Haryana Circle,DivReportingCircle,Gurgaon Division,Dhanota BO,BO,Delivery,MAHENDRAGARH,HARYANA,,,,,,,,,,
65914,RAJA Sahib Public Sr. Sec. School Jhingran/Principal Tarjiwan Singh Garcha,"Raja Sahib Sen. Sec, School VPO Jhingran Distt SBS Nagar, Punjab, Pin coce :- 144507",144507,Hot Lead,Punjab Circle,Punjab West Region,Jalandhar Division,Chahal Kalan BO,BO,Delivery,Shahid Bhagat Singh Nagar,PUNJAB,,,,,,,,,,
65964,"T R Public School, Uttar Pradesh - Ajay Dubey","Amee Alapur, Pura, Faizabad, Ayodhya Uttar Pradesh PIN Code: 224172",224172,Hot Lead,Uttar Pradesh Circle,Lucknow HQ Region,Faizabad Division,Gangauli BO,BO,Delivery,FIROZABAD,UTTAR PRADESH,,,,,,,,,,
66009,Anantha Sai Vidya Nikethan-Srikanth,"Sukh Vihar, Bagh Amberpet, Amberpet, Hyderabad, Telangana 500013",500013,Hot Lead,Telangana Circle,Hyderabad City Region,Hyderabad South East Division,Amberpet S.O,PO,Delivery,HYDERABAD,TELANGANA,,,,,,,,,,
66013,Adarsh Bal Vidyalaya Sr. Sec. School-Sumit Dutta,"Adarsh Bal Vidyalaya Sr. Sec School, Banga Rd, Guru Ravidas Nagar, Nawanshahr, Punjab 144514",144514,GharWapisi,Punjab Circle,Punjab West Region,Jalandhar Division,Allachaur BO,BO,Delivery,Shahid Bhagat Singh Nagar,PUNJAB,,,,,,,,,,
66015,Natkhat Kid's School Gayatri Nagar,"Natkhat kids school, Gayatri Nagar Sudna Daltonganj palamu jharkhand, Pin code 822102, 7979858264",822102,Existing School,Jharkhand Circle,DivReportingCircle,Palamau Division,I E Sudna BO,BO,Delivery,PALAMU,JHARKHAND,,,,,,,,,,
66061,Jupiter Pre School,"Jupiter International School C3, Yashwar nagar, kachnar city, Vijay Nagar, Jabalpur MP 482002",482002,Existing School,Madhya Pradesh Circle,Jabalpur Region,Jabalpur Division,Agasaud B.O,BO,Delivery,JABALPUR,MADHYA PRADESH,,,,,,,,,,
66102,St. Michael school Main-Rajat Behl,"Jajpur, Saparom, Itki Road
Ranchi – 835303

Phone: 06516454439",835303,GharWapisi,Jharkhand Circle,DivReportingCircle,Ranchi Division,Bindhani BO,BO,Delivery,RANCHI,JHARKHAND,,,,,,,,,,
66103,ST. MICHAEL PLAY SCHOOL,"St. Michael's Play School, Near Sunday Market, Ratu,Ranchi, Jharkhand, Pin code - 835222, mob. 7319768322,7520332272",835222,Existing School,Jharkhand Circle,DivReportingCircle,Ranchi Division,Chipra BO,BO,Delivery,RANCHI,JHARKHAND,,,,,,,,,,
66104,MODERN INTERNATIONAL SCHOOL/Chandrashakher Patel,"Modern international school khulri, Village+post- khulri, Teh. - gadarwara, Distt.- narsinghpur 487441",487441,Existing School,Madhya Pradesh Circle,DivReportingCircle,Hoshangabad Division,Deguwa B.O,BO,Delivery,NARSINGHPUR,MADHYA PRADESH,,,,,,,,,,
66134,P.P Savani School-Abhay Shah,"Mota Varachcha-Abrahma Road, Surat - Kamrej Hwy, Surat, Gujarat 394105",394105,GharWapisi,Gujarat Circle,Vadodara Region,Surat Division,Utran Power House SO,PO,Delivery,SURAT,GUJARAT,,,,,,,,,,
66143,Kidzberry Public School(3rd branch)-Gokul Khatri,"9, K-Sector, Ayodhya Nagar, Bhopal, Madhya Pradesh 462041",462041,GharWapisi,Madhya Pradesh Circle,DivReportingCircle,Bhopal Division,Ayodhaya Nagar S.O,PO,Delivery,BHOPAL,MADHYA PRADESH,,,,,,,,,,
66151,Saraswati Vidyawardhani Shikshan Sansthan C/o. Tree House High School,"Saraswati Vidyavardhini Shikshan Sanstha , Near Khadakpada Police Station, Near Godrej Hills, Kalyan (W) -421301",421301,GharWapisi,Maharashtra Circle,Navi Mumbai Region,Thane Division,Pimpaloli B.O,BO,Delivery,THANE,MAHARASHTRA,,,,,,,,,,
66154,Promise Land Public Inter College-Anugrah Stanley,"Promise Land Public Inter College ,P.O. Rupaidiha Distt. Bahraich UP-271881,Contact No: 7754081675",271881,Existing School,Uttar Pradesh Circle,Gorakhpur Region,Bahraich Division,Babaganj BO,BO,Delivery,BAHRAICH,UTTAR PRADESH,,,,,,,,,,
66172,Vidya vihar vidyalaya,"E-7, Panchsheel Garden, Naveen Shahadra, Delhi
110032",110032,GharWapisi,Delhi Circle,DivReportingCircle,Delhi East Division,Shahdara SO,PO,Delivery,SHAHDARA,DELHI,,,,,,,,,,
66181,Shri Pragya Public School Bijai Nagar,"Shri Pragya Public School, Pragya Road, Bijainagar, Dist. Beawar, Pin code 305624",305624,Existing School,Rajasthan Circle,Ajmer Region,Beawar Division,Badi B.O,BO,Delivery,AJMER,RAJASTHAN,,,,,,,,,,
66203,Shree Swaminarayan High School-Ankit Choksi,"Swaminarayan Mandir Compound, Daxini Railway Crossing, Maninagar, Ahmedabad - 380008",380008,Hot Lead,Gujarat Circle,Ahmedabad HQ Region,Ahmedabad City Division,Maninagar SO,PO,Delivery,AHMADABAD,GUJARAT,,,,,,,,,,
66225,Greenland school,"Murdhava, Sonbhadra, NH-75, Robertsganj Shakti Nagar Road, Renukoot, Renukoot, Uttar Pradesh 231217",231217,Existing School,Uttar Pradesh Circle,Allahabad Region,Mirzapur Division,Belhatthi BO,BO,Delivery,SONBHADRA,UTTAR PRADESH,,,,,,,,,,
66258,SEMS MODEL SCHOOL,"SEMS MODEL SCHOOL Address:- Near Baram BABA Mandir, Karvi Road, Manikpur, Chitrakoot (UP) Pin code:- 210208 ,Mobile:-8448449915, 9984907313, 9125789847",210208,Existing School,Uttar Pradesh Circle,Kanpur Region,Banda Division,Sigwan BO,BO,Delivery,CHITRAKOOT,UTTAR PRADESH,,,,,,,,,,
66289,Lotus international school,"Lotus international public school jawaharnagar, Vivekanand colony petrol pump thana tah + dist - Bhandara, Maharastra 441906 , MOHADI BRANCH ADDRESS -Dongargaon siddhi mandir jawal andhalgaon road tah -mohadi dist - Bhandara 441906",441906,Existing School,Maharashtra Circle,Nagpur Region,Nagpur Moffusil Division,Mohdura B.O,BO,Delivery,BHANDARA,MAHARASHTRA,,,,,,,,,,
66301,Saraswati Vidya Mandir School,"Hansi Road, Jind HO, Jind - 126102 (Near Industrial Area)",126102,Hot Lead,Haryana Circle,DivReportingCircle,Karnal Division,Ram Rai B.O,BO,Delivery,JIND,HARYANA,,,,,,,,,,
66327,Bahjoi Heritage public school-Sumit Kumar Varshney,"Bahjoi Heritage Public School,Islamnagar Churaha (pincode: 244410),Ray Pur Kalan.Behjoi, Sambhal (Bhim Nagar), Uttar Pradesh",244410,Hot Lead,Uttar Pradesh Circle,Bareilly Region,Moradabad Division,Chatan BO,BO,Delivery,SAMBHAL,UTTAR PRADESH,,,,,,,,,,
66331,Gurukul Academy-Ravindra Pandey,"Indra Nagar, Garautha, Uttar Pradesh 284203",284203,Hot Lead,Uttar Pradesh Circle,Agra Region,Jhansi Division,Kachir BO,BO,Delivery,JHANSI,UTTAR PRADESH,,,,,,,,,,
66334,Modern Academy School,"Modern Academy School, Ashok Nagar, Gaya, Pin - 823001, Bihar, Cont :- 9199313153",823001,Existing School,Bihar Circle,DivReportingCircle,Gaya Division,Gaya HO,HO,Delivery,GAYA,BIHAR,,,,,,,,,,
66336,Shivalik Educational Academy-Kaushal Sharma,"Deeg, Asaoti - Jataula Rd, near Railway Fatak, Asaoti, Haryana 121102",121102,Hot Lead,Haryana Circle,DivReportingCircle,Faridabad Division,DUDHOLA BO,BO,Delivery,PALWAL,HARYANA,,,,,,,,,,
66351,Dhar Cambridge Academy-Vipin Kumar,"Mandu Rd, in front of D R P LINE, D R P LINE, Dhar, Khankapuri, Madhya Pradesh 454001",454001,Hot Lead,Madhya Pradesh Circle,Indore Region,Indore Moffusil Division,TIRLA B.O,BO,Delivery,DHAR,MADHYA PRADESH,,,,,,,,,,
66370,Arya Sanskar Valley-Pawan Kumar,"Nambrot, P.O. Dhalwan, Teh. Baldawara, Distt. Mandi (H.P.) 175004",175004,Hot Lead,Himachal Pradesh Circle,DivReportingCircle,Mandi Division,Upper Bhambla BO,BO,Delivery,MANDI,HIMACHAL PRADESH,,,,,,,,,,
66398,Central India Academy-Rita Singh,"Bhopal Road, Indore-Bhopal Bypass Square, 455001",455001,Hot Lead,Madhya Pradesh Circle,Indore Region,Indore Moffusil Division,Bairagarh B.O,BO,Delivery,DEWAS,MADHYA PRADESH,,,,,,,,,,
66416,The Legend School,"Near main gate of Maharaja Bada Bagh,Kadavi road Dumraon 802119",802119,Existing School,Bihar Circle,DivReportingCircle,Bhojpur Division,Baruna RS BO,BO,Delivery,BUXAR,BIHAR,,,,,,,,,,
66417,B P world school,"BP World School, Sunderbani Ward no 1 Sub-District Government Hospital Jammu & Kashmir, 185153",185153,Existing School,Jammukashmir Circle,DivReportingCircle,Rajouri Division,Patrara BO,BO,Delivery,RAJOURI,JAMMU AND KASHMIR,,,,,,,,,,
66436,Learning Trees School- Priyank Gokani,"FF, Pebble Bay, BRTS, New CG Rd, Janta Nagar, ONGC Colony, Chandkheda, Ahmedabad, Gujarat 382424",382424,Hot Lead,Gujarat Circle,Ahmedabad HQ Region,Ahmedabad City Division,Sughad BO,BO,Delivery,GANDHINAGAR,GUJARAT,,,,,,,,,,
66443,PMM Academy,"PMM Academy, Ashok Nagar, Gaya, Pin - 823001, Bihar, Cont :- 9199313153",823001,Existing School,Bihar Circle,DivReportingCircle,Gaya Division,Gaya HO,HO,Delivery,GAYA,BIHAR,,,,,,,,,,
66445,Dream India Public School-Pankaj Sipa,"Plot No. 159 Mangal Colony, behind Saharsh Hospital, Madhya Pradesh 456010",456010,GharWapisi,Madhya Pradesh Circle,Indore Region,Ujjain Division,Ujjain M.L.Nagar S.O,PO,Delivery,UJJAIN,MADHYA PRADESH,,,,,,,,,,
66470,Aayurishi modern school,"Azampur Garhi, Mandi Shyam Nagar, Greater Noida, Uttar Pradesh 203202",203202,Hot Lead,Uttar Pradesh Circle,Agra Region,Bulandshahar Division,Chiti BO,BO,Delivery,GAUTAM BUDDHA NAGAR,UTTAR PRADESH,,,,,,,,,,
66506,Global Sainik Academy-Dr. Raghu Krishna Murthy,"Benakanalli Road, Bidar, India, Karnataka 585402",585402,GharWapisi,Karnataka Circle,North Karnataka Region,Bidar Division,Gadgi B.O,BO,Delivery,BIDAR,KARNATAKA,,,,,,,,,,
66555,Maharaja Agrasen Polytechnic College-Navneet,"Maharaja Agrasen Polytechnic College, Dayantpur jewar G.B.Nagar UP 203135",203135,Existing School,Uttar Pradesh Circle,Agra Region,Bulandshahar Division,Mangrauli BO,BO,Delivery,GAUTAM BUDDHA NAGAR,UTTAR PRADESH,,,,,,,,,,
66558,"Lions SVEM School, Koppal","Lions Swamy Vivekananda English Medium Primary and High School
Sy. No. 467/2,3,5, Swamy Vivekananda Marga,
Chukkanakal Road, 2nd Ward,
Koppal
Tq. & Dist.: Karnataka,India
Pin: 583 231",583231,GharWapisi,Karnataka Circle,North Karnataka Region,Gadag Division,Koppal H.O,HO,Delivery,KOPPAL,KARNATAKA,,,,,,,,,,
66561,Knowledge Rain Public School-Sanjay Yadav,"Jalgoan Road, Pansemal, Distt. Barwani (M.P.) 451770",451770,Hot Lead,Madhya Pradesh Circle,Indore Region,Khandwa Division,Bandhara Bujurg B.O,BO,Delivery,BARWANI,MADHYA PRADESH,,,,,,,,,,
66630,Speed well Edusports school-vikas gajanan,"Gadgadsangvi, Maharashtra 422403",422403,Hot Lead,Maharashtra Circle,Navi Mumbai Region,Nasik Division,Murambi B.O,BO,Delivery,NASHIK,MAHARASHTRA,,,,,,,,,,
66692,ASSAY INDIAN MODEL SCHOOL-Shyam Lal Mahato,"Tithpukur ,P.O- Tungidighi, P.S- Karandighi, Dist- Uttar Dinajpur, Pin-733215",733215,Existing School,West Bengal Circle,North Bengal Region,Dinajpur Division,Kamartore BO,BO,Delivery,DINAJPUR UTTAR,WEST BENGAL,,,,,,,,,,
66710,PEARLS INTERNATIONAL SCHOOL-Satwinder Singh Kala,"Hajipur Mukerian Road Ballowan Mukerian, Hoshiarpur, Punjab 144211",144211,Hot Lead,Punjab Circle,Punjab West Region,Hoshiarpur Division,Hoshiarpur Kalota BO,BO,Delivery,HOSHIARPUR,PUNJAB,,,,,,,,,,
66871,JSS Gurukul,"B4 Balaji Colony Road Kedgaon, Ambika Nagar, Balaji Colony, Ahmednagar, Maharashtra 414001",414001,GharWapisi,Maharashtra Circle,Pune Region,Ahmednagar Division,Ahmednagar H.O,HO,Delivery,AHMEDNAGAR,MAHARASHTRA,,,,,,,,,,
66910,St Thomas School,"Seby M Baby, ST Thomas school, Dhakuakhana Lakhimpur Assam- 787055, Ph 9957473740",787055,Existing School,Assam Circle,Dibrugarh Region,Dibrugarh Division,Bahpara B.O,BO,Delivery,LAKHIMPUR,ASSAM,,,,,,,,,,
66931,Jnana Bharathi Group of Institutions-M.ramesh Babu,"Dodahatta Road, Kalyandurg, Andhra Pradesh 515761",515761,Hot Lead,Andhra Pradesh Circle,Kurnool Region,Anantapur Division,Dodagatta B.O,BO,Delivery,ANANTAPUR,ANDHRA PRADESH,,,,,,,,,,
66937,Wee care play school,"Wee care play school, Amrit colony near Nehar cable office rohtak,Pin - 124001 haryana, Phone - 9671851539",124001,Existing School,Haryana Circle,DivReportingCircle,Rohtak Division,Rohtak HO,HO,Delivery,ROHTAK,HARYANA,,,,,,,,,,
66970,Grace Academy,"Fun City, Pilibhit Bypass, Chhoti Vihar, Bareilly, Uttar Pradesh 243006, IN",243006,GharWapisi,Uttar Pradesh Circle,Bareilly Region,Bareilly Division,RKUniversity SO,PO,Delivery,BAREILLY,UTTAR PRADESH,,,,,,,,,,
66999,Bright Academy School,"Gurunanak Sarani, Punjabipara, Siliguri, Pincode - 734001, Phone - 9832095334",734001,Existing School,West Bengal Circle,North Bengal Region,Darjeeling Division,Siliguri HO,HO,Delivery,DARJEELING,WEST BENGAL,,,,,,,,,,
67032,Candid Public School-Irshad Rather,"Awaneera, Road, Frisal, Jammu and Kashmir 192232",192232,Hot Lead,Jammukashmir Circle,DivReportingCircle,Srinagar Division,Katrasoo BO,BO,Delivery,KULGAM,JAMMU AND KASHMIR,,,,,,,,,,
67035,SB International School-Gaurav Sharma,"Dalelgarh Bilaspur Road ,Gautam Buddh Nagar Bagpur, Uttar Pradesh 203202",203202,Hot Lead,Uttar Pradesh Circle,Agra Region,Bulandshahar Division,Chiti BO,BO,Delivery,GAUTAM BUDDHA NAGAR,UTTAR PRADESH,,,,,,,,,,
67039,Kidz Kingdom Pre-school And Activity Centre-Mala Lohani,"Shop No. G 5, 107/102, Durvas Apartment, Link Road, Nalasopara East, Palghar - 401209 (Opp Dmart)",401209,Hot Lead,Maharashtra Circle,Navi Mumbai Region,Palghar Division,Nallosapare E S.O,PO,Delivery,PALGHAR,MAHARASHTRA,,,,,,,,,,
67091,Amar Bhartiya Mahavidyalaya-Chouhan,"Chauhan Pyaoo, Suresh Nagar Colony, Thatipur Gwalior - 474011 Madhya Pradesh, India",474011,Hot Lead,Madhya Pradesh Circle,DivReportingCircle,Gwalior Division,R. K. Puri Gwalior SO,PO,Delivery,GWALIOR,MADHYA PRADESH,,,,,,,,,,
67093,"West Point School Sandhwan,Danewala Road-Himmat","Danewala Road, Sandhwan, District Faridkot Punjab 151209",151209,Hot Lead,Punjab Circle,Punjab West Region,Faridkot Division,Dhimanwali BO,BO,Delivery,FARIDKOT,PUNJAB,,,,,,,,,,
67095,Vishwa Bharathi Arts and Science College-Sridharan,"Vishwa Bharathi arts and science college and vishwa Bharathi college of education,Krishnagiri main road, morappur-post, harur taluk, dharmapuri District-635305",635305,Hot Lead,Tamilnadu Circle,"Western Region, Coimbatore",Dharmapuri Division,Elavadai B.O,BO,Delivery,DHARMAPURI,TAMIL NADU,,,,,,,,,,
67126,"Delhi World Public School, Dhar","Delhi World Public School, Dharawara (Mandav Road), Mobile : 8602456294, Pin - 454001",454001,Existing School,Madhya Pradesh Circle,Indore Region,Indore Moffusil Division,TIRLA B.O,BO,Delivery,DHAR,MADHYA PRADESH,,,,,,,,,,
67127,St. Joseph International School-Anil Maan,"12 KM Stone, Hisar-Sirsa Road, Hisar, 125047 (Haryana)",125047,Hot Lead,Haryana Circle,DivReportingCircle,Hissar Division,Landhari BO,BO,Delivery,HISAR,HARYANA,,,,,,,,,,
67131,Greenland Academy,"Karnawad Rd, Karnawad, Madhya Pradesh 455221",455221,GharWapisi,Madhya Pradesh Circle,Indore Region,Indore Moffusil Division,Barkheda Soma B.O,BO,Delivery,DEWAS,MADHYA PRADESH,,,,,,,,,,
67151,SSM english school,"Lohta Road, Indusrial Area, Chandpur, Varanasi - 221006 (Near Sanjay Memorial College)",221006,Hot Lead,Uttar Pradesh Circle,Varanasi Region,Varanasi West Division,Kaithauli BO,BO,Delivery,VARANASI,UTTAR PRADESH,,,,,,,,,,
67156,Yardland school,"UP, MP BORDER CHITRA ROAD, near ASHRAMSHALA, Kashavgarh, Chitrakoot, Madhya Pradesh 210204",210204,Hot Lead,Uttar Pradesh Circle,Kanpur Region,Banda Division,Khohi BO,BO,Delivery,CHITRAKOOT,UTTAR PRADESH,,,,,,,,,,
67166,Montesseri Academy,"Kumarganj- Patiram Rd, near Post Office, Patiram, West Bengal 733133",733133,Hot Lead,West Bengal Circle,North Bengal Region,Dinajpur Division,Batun BO,BO,Delivery,DINAJPUR DAKSHIN,WEST BENGAL,,,,,,,,,,
67167,gomtesh eng medium school,"Gomatesh Nagar, Nipani Murgud Rd, Niapni, Karnataka 591237, 95958 91000, 8669126850",591237,Hot Lead,Karnataka Circle,North Karnataka Region,Chikodi Division,Chikalwal B.O,BO,Delivery,BELAGAVI,KARNATAKA,,,,,,,,,,
67169,Tiny Tots Play School-Ruby,"32, New Bank Colony Jambudeep, Do Batti Road, Do Batti, Ratlam - 457001",457001,Hot Lead,Madhya Pradesh Circle,Indore Region,Ratlam Division,Dhamnod B.O,BO,Delivery,RATLAM,MADHYA PRADESH,,,,,,,,,,
67170,Ignited Minds International School-Vijay,Address Ignited Minds. 402. Orchid Business Centre. Marol Military Road Andheri East Mumbai 400059,400059,Hot Lead,Maharashtra Circle,Mumbai Region,Mumbai City North Division,J.B. Nagar S.O,PO,Delivery,MUMBAI SUBURBAN,MAHARASHTRA,,,,,,,,,,
67175,Little World International Play School,"No.259, Agara Bus Stop, Outer Ring Rd, beside Agara Flyover, Agara Village, 1st Sector, HSR Layout, Bengaluru, Karnataka 560102, Phone: 098800 71870",560102,Hot Lead,Karnataka Circle,Bengaluru HQ Region,Bengaluru South Division,HSR Layout S.O,PO,Delivery,BENGALURU URBAN,KARNATAKA,,,,,,,,,,
67175,Little World International Play School,"No.259, Agara Bus Stop, Outer Ring Rd, beside Agara Flyover, Agara Village, 1st Sector, HSR Layout, Bengaluru, Karnataka 560102",560102,GharWapisi,Karnataka Circle,Bengaluru HQ Region,Bengaluru South Division,HSR Layout S.O,PO,Delivery,BENGALURU URBAN,KARNATAKA,,,,,,,,,,
67176,MRUN balika school,"Govindpur Goriyon Rd, Govindpur Goriyon, Uttar Pradesh 212217",212217,Hot Lead,Uttar Pradesh Circle,Allahabad Region,Allahabad Division,Samsabad BO,BO,Delivery,KAUSHAMBI,UTTAR PRADESH,,,,,,,,,,
67177,kids planet school,"Kids Planet Convent School, Jhattra Road, Zira, Jhattra Road, Ferozepur, Firozepur, Punjab, 142047",142047,Hot Lead,Punjab Circle,Punjab West Region,Ferozpur Division,Dhandian BO,BO,Delivery,FIROZEPUR,PUNJAB,,,,,,,,,,
67179,Medhaam Preschool & Daycare,"Medhaam Preschool & Daycare C Block, South City 1 Gurugram, Haryana 122 007 (near Rakshak apartments)",122007,Hot Lead,Haryana Circle,DivReportingCircle,Gurgaon Division,Industrial Estate SO Gurgaon,PO,Delivery,GURUGRAM,HARYANA,,,,,,,,,,
67180,Anshul Vidya Mandir,"Vrindavandham Bagh Road, Jobat, Dist. Alirajpur (M.P.) 457887",457887,Hot Lead,Madhya Pradesh Circle,Indore Region,Ratlam Division,Badaundwa B.O,BO,Delivery,ALIRAJPUR,MADHYA PRADESH,,,,,,,,,,
67187,mansarowar public high school,"M P Nagar, Satai Road, Green Avenue Colony, Chhatarpur - 471001 (Gali No 02), Satai-Chhatarpur Rd, Ambedkar Nagar, Chhatarpur, Madhya Pradesh 471001",471001,Hot Lead,Madhya Pradesh Circle,Jabalpur Region,Chhatarpur Division,Dhadari B.O,BO,Delivery,CHHATARPUR,MADHYA PRADESH,,,,,,,,,,
67193,Hillside college of pharmacy @ research centre,"9, Kanakapura Rd, Raghuvanahalli, Bangalore City Municipal Corporation Layout, Bengaluru, Karnataka 560062",560062,Hot Lead,Karnataka Circle,Bengaluru HQ Region,Bengaluru South Division,Doddakallasandra S.O,PO,Delivery,BENGALURU URBAN,KARNATAKA,,,,,,,,,,
67204,KHARAGPUR PVT. INDUSTRIAL TRAINING INSTITUTE-Suman Aacharya,"Walipur Bus Stand (NH-6), Kharagpur - 1, Walipur, Kharagpur, West Bengal 721301",721301,Hot Lead,West Bengal Circle,South Bengal Region,Midnapore Division,Balarampur BO,BO,Delivery,MEDINIPUR WEST,WEST BENGAL,,,,,,,,,,
67208,Ganga Sheel Group of Medical College,"Kamua, Bisalpur Road Bareilly (U.P) 243001",243001,Hot Lead,Uttar Pradesh Circle,Bareilly Region,Bareilly Division,Bareilly HO,HO,Delivery,BAREILLY,UTTAR PRADESH,,,,,,,,,,
67210,DPS,"Near sub divisional office, Nirmali, India, 847452",847452,Hot Lead,Bihar Circle,"East Region, Bhagalpur",Saharsa Division,Mungraha,BO,Delivery,SUPAUL,BIHAR,,,,,,,,,,
67213,Contai Public School,"Contai Public School , Add- Dakshin Gopinathpur, P.O.- Contai Super Market, Distt- Purba Medinipur, West Bengal, Pin No.- 721402, Phone No. - 9734482037/ 9432427407",721402,Existing School,West Bengal Circle,South Bengal Region,Contai Division,Contai Super Market SO,PO,Delivery,MEDINIPUR EAST,WEST BENGAL,,,,,,,,,,
67227,Sunrise International School-Sudhakar Reddy Madireddy,"Deendar Palli, Bhakarapeta, Andhra Pradesh 517194",517194,Hot Lead,Andhra Pradesh Circle,Kurnool Region,Tirupati Division,Bodevandlapalle B.O,BO,Delivery,CHITTOOR,ANDHRA PRADESH,,,,,,,,,,
67228,Global Oriental Public School-Shamshad Ahmad,"Patherdewa, Deoria , Uttar Pradesh, 274404 Near Police Chowki",274404,Hot Lead,Uttar Pradesh Circle,Gorakhpur Region,Deoria Division,Bishunpura Bazar BO,BO,Delivery,DEORIA,UTTAR PRADESH,,,,,,,,,,
67256,Eastern Residential Public School,"Ramol , Pachgachhi road, Azamnagar
Salmari, Bihar 855113
India",855113,GharWapisi,Bihar Circle,"East Region, Bhagalpur",Divisional Office Katihar,Dhumnagar BO,BO,Delivery,KATIHAR,BIHAR,,,,,,,,,,
67375,Life Vision Academy,"near new Tehsil, Civil Lines, Lalitpur, Uttar Pradesh 284403 Contact- 88405 29156",284403,GharWapisi,Uttar Pradesh Circle,Agra Region,Jhansi Division,Ronda,BO,Delivery,LALITPUR,UTTAR PRADESH,,,,,,,,,,
67375,Life Vision Academy-Suhail,"Kadwaya, Madhya Pradesh 473335",473335,GharWapisi,Madhya Pradesh Circle,DivReportingCircle,Guna Division,Mahidpur B.O,BO,Delivery,ASHOKNAGAR,MADHYA PRADESH,,,,,,,,,,
67413,Labbaik Scholars school,"Labbaik scholars school, 80B Dr. Sundari mohan,Avenue,Kolkata 700014, near 1st floor,Above bandan bank.",700014,Hot Lead,West Bengal Circle,Kolkata Region,Kolkata East Division,Intally SO,PO,Delivery,KOLKATA,WEST BENGAL,,,,,,,,,,
67457,Third Millennium Public School Nowshera,"amar bagh bela, ward no 01 ,Nowsher 185151",185151,Existing School,Jammukashmir Circle,DivReportingCircle,Rajouri Division,Bajnoa BO,BO,Delivery,RAJOURI,JAMMU AND KASHMIR,,,,,,,,,,
67513,WAVE INTERNATIONAL SCHOOL-Krishna Kumar,"Siyantand, Baramasia, Jharkhand 815312",815312,Hot Lead,Jharkhand Circle,DivReportingCircle,Giridih Division,Barkitand BO,BO,Delivery,GIRIDIH,JHARKHAND,,,,,,,,,,
67622,AKC Education,"AKC SCHOOL, NARBADA NAGAR CHAMTI KHERA ROAD CHITTORGARH, pin 312001, Rajsthan, Mo.No 94142 02332",312001,Existing School,Rajasthan Circle,Ajmer Region,Chittorgarh Division,Chittorgarh H.O,HO,Delivery,CHITTORGARH,RAJASTHAN,,,,,,,,,,
67674,Gurukul Vidyalaya,"Bhaisana, Jogipura, Madhya Pradesh 465685",465685,GharWapisi,Madhya Pradesh Circle,Indore Region,Sehore Division,Hinotiya B.O,BO,Delivery,RAJGARH,MADHYA PRADESH,,,,,,,,,,
67680,K N Patel School-Payal Siddhapura,"Shayona Green, KNPIS Shankus Green Memories Party Plot Lane, Besides, Gota, Ahmedabad, Gujarat 382481",382481,Hot Lead,Gujarat Circle,Ahmedabad HQ Region,Ahmedabad City Division,Chandlodia SO,PO,Delivery,AHMADABAD,GUJARAT,,,,,,,,,,
67682,vardhman higher secondary schoolMohit Gandhi,"Police Station, CM - 8 & 9, near Hira Nagar, Sector CH, Sukhlia, Indore, Madhya Pradesh 452010",452010,Hot Lead,Madhya Pradesh Circle,Indore Region,Indore City Division,Vijay Nagar S.O,PO,Delivery,INDORE,MADHYA PRADESH,,,,,,,,,,
67706,Birsa residential school,"saldega,PO/PS dist simdega(JH) 835223",835223,Existing School,Jharkhand Circle,DivReportingCircle,Ranchi Division,Jokbahar BO,BO,Delivery,SIMDEGA,JHARKHAND,,,,,,,,,,
67708,Gurukulam-Sivanesan Kandaiah,"Alangirankadu Road, Aranthangi, Pudukkottai, Tamil Nadu, 614624, India",614624,Hot Lead,Tamilnadu Circle,"Central Region, Trichirapalli",Pudukkottai Division,Avanathankottai B.O,BO,Delivery,PUDUKKOTTAI,TAMIL NADU,,,,,,,,,,
67767,Muskan International School,"Muskan International School Kantabanji, Dist: Bolangir, State: Odisha, Pin code: 767039",767039,Existing School,Odisha Circle,Sambalpur Region,Balangir Division,Bichhubahali B.O,BO,Delivery,BALANGIR,ODISHA,,,,,,,,,,
67768,Sham Golden Academy,"Sham Golden Academy, 36/D, Topsia Road (East) Kolkata - Pin -700100, Uttar Panchanna Gram",700100,Existing School,West Bengal Circle,Kolkata Region,Kolkata East Division,Vip Nagar SO,PO,Delivery,KOLKATA,WEST BENGAL,,,,,,,,,,
67793,Sai School of Education-Vipul Sharma,"Sai School of Education,Near Power House, Poonch, Pincode :185101",185101,GharWapisi,Jammukashmir Circle,DivReportingCircle,Rajouri Division,Kalai BO,BO,Delivery,POONCH,JAMMU AND KASHMIR,,,,,,,,,,
67838,Dewan Global School Kids,"21, 3, PNB Rd, Sector 3, Jagrati Vihar, Meerut, Uttar Pradesh 250004",250004,GharWapisi,Uttar Pradesh Circle,Bareilly Region,Meerut Division,Murlipur Phool BO,BO,Delivery,MEERUT,UTTAR PRADESH,,,,,,,,,,
67851,Shiv shakti international School,"Nambiyampalayam Village, Avinashi Taluk, Thekkalur Post, Tiruppur - 641654 Contact - 9943607071",641654,Positive Demo,Tamilnadu Circle,"Western Region, Coimbatore",Tirupur Division,Sembianallur BO,BO,Delivery,TIRUPPUR,TAMIL NADU,,,,,,,,,,
67891,Jnanodaya English Medium Public School-Vijay Kumar Harale,"Bull-temple road, Shankara Park, Shankarapuram, Bangalore – 560 004",560004,GharWapisi,Karnataka Circle,Bengaluru HQ Region,Bengaluru South Division,Basavanagudi H.O,HO,Delivery,BENGALURU URBAN,KARNATAKA,,,,,,,,,,
67910,Praveen Vidyapeeth-Deepak Jadon,"NH2, Sirsaganj, Jugmudi, Uttar Pradesh 283151",283151,Hot Lead,Uttar Pradesh Circle,Agra Region,Mainpuri Division,Jaymai BO,BO,Delivery,FIROZABAD,UTTAR PRADESH,,,,,,,,,,
67952,RED ROSE PLAY SCHOOL-AMIT KUMAR BHARDWAJ,"Baraut, Baoli Road, Baraut Baghpat, Baraut - 250611 (Near Cheap Gun House)",250611,GharWapisi,Uttar Pradesh Circle,Bareilly Region,Meerut Division,Chaubli BO,BO,Delivery,BAGHPAT,UTTAR PRADESH,,,,,,,,,,
67986,Brilliant Public School-Deep Parmar,"kasturi courtyard, 247-248, near new rto office, transport nagar, Kokta, Bhopal, Madhya Pradesh 462022",462022,GharWapisi,Madhya Pradesh Circle,DivReportingCircle,Bhopal Division,SOS BALGRAM B.O,BO,Delivery,BHOPAL,MADHYA PRADESH,,,,,,,,,,
67995,Kidzee Pre School-Geeta Ahuja,"New Mondha, Parbhani, Maharashtra 431401",431401,Hot Lead,Maharashtra Circle,Aurangabad Region,Pharbhani Division,Parbhani H.O,HO,Delivery,PARBHANI,MAHARASHTRA,,,,,,,,,,
68022,sunshine public school,"Sunshine Public School, Jind Road, Kaithal, Kaithal, India, Haryana (136027)",136027,Hot Lead,Haryana Circle,DivReportingCircle,Kurukshetra Division,Geong B.O,BO,Delivery,KAITHAL,HARYANA,,,,,,,,,,
68053,The Mount School,"Chakmusa Road, Patna Aurangabad Road, Phulwarisharif, Patna - 801505 (Near Nakti Bhawani)",801505,Hot Lead,Bihar Circle,DivReportingCircle,Patna Division,MOBARAKPUR BO,BO,Delivery,PATNA,BIHAR,,,,,,,,,,
68053,The Mount School,"Near AIIMS, Naktibhawani,Khagaul Naubatpur Road
Patna, India 801105",801105,GharWapisi,Bihar Circle,DivReportingCircle,Patna Division,MKURJI BO,BO,Delivery,PATNA,BIHAR,,,,,,,,,,
68061,Mount Valley International School,"N.H. 76, Near Sukhwara Bus Stand, Sukhwara, Distt.- Chittorgarh (Raj) 312602",312602,Existing School,Rajasthan Circle,Ajmer Region,Chittorgarh Division,Bhalundi B.O,BO,Delivery,CHITTORGARH,RAJASTHAN,,,,,,,,,,
68061,Mount Valley International School-Ramniwas Dhakar,"Mount Valley International School Sarlai, Peeo Sukhwara, Bhadesar Chittaurgarh Sarlai1 (pincode: 312613) Rajasthan.",312613,Hot Lead,Rajasthan Circle,Ajmer Region,Chittorgarh Division,Kannoj B.O,BO,Delivery,CHITTORGARH,RAJASTHAN,,,,,,,,,,
68061,Mount Valley International School-Ramniwas Dhakar,"Sukhwara, Chittaurgarh, India, Rajasthan 312613",312613,GharWapisi,Rajasthan Circle,Ajmer Region,Chittorgarh Division,Kannoj B.O,BO,Delivery,CHITTORGARH,RAJASTHAN,,,,,,,,,,
68081,om Gyan Kendra -Hemendra Agrawal,"Om Gyan Kendra, Shivpuri Block B, Saloda Road, Gangapur, Rajasthan 322201",322201,Hot Lead,Rajasthan Circle,DivReportingCircle,Sawaimadhopur Division,Badhkalan BO,BO,Delivery,SAWAI MADHOPUR,RAJASTHAN,,,,,,,,,,
68085,"AHA Public School, Chapra-Gulam Jilani","Jalalpur, Chapra, NH-85, Saran, Bihar 841301",841301,Hot Lead,Bihar Circle,Muzaffarpur Region,Saran Division,Chapra HO,HO,Delivery,SARAN,BIHAR,,,,,,,,,,
68096,P. S. KHUBBA CBSE SCHOOL LATUR,"Prabhu Estate, Khubba Nagar, Basveshwar Chouk (East, Ring Rd, Latur, Maharashtra 413512",413512,GharWapisi,Maharashtra Circle,Aurangabad Region,Osmanabad Division,Latur H.O,HO,Delivery,LATUR,MAHARASHTRA,,,,,,,,,,
68143,RISING BUDS PUBLIC SCHOOL,"POORE BADAL WARD, NAGAR PANCHAYAT SUBEHA, BARABANKI 225125",225125,Existing School,Uttar Pradesh Circle,Lucknow HQ Region,Barabanki Division,Chiraiya BO,BO,Delivery,BARABANKI,UTTAR PRADESH,,,,,,,,,,
68148,dream valley school-Khader Mohd,"Dewdi,Karam ali khan Tappa Chabutra, Karwan Rd, Hyderabad, Telangana 500006",500006,Hot Lead,Telangana Circle,Hyderabad City Region,Hyderabad City Division,Karwan Sahu S.O,PO,Delivery,HYDERABAD,TELANGANA,,,,,,,,,,
68178,Vivekanand Shiksa Samiti Maulasar,"NEAR SAI TEMPLE,JHAROD ROAD,MAULASAR,NAGAUR,341506",341506,GharWapisi,Rajasthan Circle,Jodhpur Region,Nagaur Division,Nimod B.O,BO,Delivery,NAGAUR,RAJASTHAN,,,,,,,,,,
68185,"St Joseph World School, Karhal-Navneet Yadav","Saifai Bypass Karhal (Near Police Station, Uttar Pradesh 205264",205264,Hot Lead,Uttar Pradesh Circle,Agra Region,Mainpuri Division,Kirthua BO,BO,Delivery,MAINPURI,UTTAR PRADESH,,,,,,,,,,
68241,Sir Isaac Newton school,"Velankanni Road, Pappakoil, Nagapattinam, Tamil Nadu 611102",611102,GharWapisi,Tamilnadu Circle,"Central Region, Trichirapalli",Nagapattinam Division,Aymazhai B.O,BO,Delivery,NAGAPATTINAM,TAMIL NADU,,,,,,,,,,
68246,Shree Sai Gurukul Prashanta Kumar Sahoo,"Sankharo, PBarapur, Basudevpur, Bhadrak State, 756046",756046,GharWapisi,Odisha Circle,DivReportingCircle,Balasore Division,Barahapur B.O,BO,Delivery,BHADRAK,ODISHA,,,,,,,,,,
68252,Star Hybrid School,"Deoria Bypass Tiraha behind icici bank, near Om Supar Bazaar, Gorakhpur, Uttar Pradesh, 273002",273002,GharWapisi,Uttar Pradesh Circle,Gorakhpur Region,Gorakhpur Division,Sonbarsa Bazar BO,BO,Delivery,GORAKHPUR,UTTAR PRADESH,,,,,,,,,,
68270,Simna Public School-Imran khan,"Chikhli, Rajnandgaon - 491441 (Pond, Raman Bazar)",491441,Hot Lead,Chattisgarh Circle,DivReportingCircle,Durg Division,Pendri BO,BO,Delivery,RAJNANDGAON,CHHATTISGARH,,,,,,,,,,
68273,crown public school,"114, Sant Nagar, near Sant Nagar garden Sawer Road, Ujjain, Madhya Pradesh 456001",456001,GharWapisi,Madhya Pradesh Circle,Indore Region,Ujjain Division,Ujjain H.O,HO,Delivery,UJJAIN,MADHYA PRADESH,,,,,,,,,,
68311,MAXX WORLD SCHOOL,"R5X7+373, Bajaura, Himachal Pradesh 175125",175125,Hot Lead,Himachal Pradesh Circle,DivReportingCircle,Mandi Division,Rahla BO,BO,Delivery,MANDI,HIMACHAL PRADESH,,,,,,,,,,
68311,MAXX WORLD SCHOOL,Garsa Rd. Bajaura Kullu HP 175141,175141,GharWapisi,Himachal Pradesh Circle,DivReportingCircle,Mandi Division,Dyar BO,BO,Delivery,KULLU,HIMACHAL PRADESH,,,,,,,,,,
68317,Shri Hari Vidyaniketan-rajesh kumar meher,"Padarparapara, Tarbha, Odisha 767016",767016,Hot Lead,Odisha Circle,Sambalpur Region,Balangir Division,Brahmani B.O,BO,Delivery,SONEPUR,ODISHA,,,,,,,,,,
68328,Sardonyx School - Jhajha-M Akhtar Sardonyx,"Domar Pokhar, Sohajana, Jhajha, Jamui-811308,",811308,Hot Lead,Bihar Circle,"East Region, Bhagalpur",Munger Division,Batia BO,BO,Delivery,JAMUI,BIHAR,,,,,,,,,,
68349,GLOBAL MONTESSORI HOUSE,"HSR Layout, Sector 1, Beside Agara Flyover, Bangalore 560102, Karnataka",560102,GharWapisi,Karnataka Circle,Bengaluru HQ Region,Bengaluru South Division,HSR Layout S.O,PO,Delivery,BENGALURU URBAN,KARNATAKA,,,,,,,,,,
68352,Alfa Advanced School,"Jodhpur Bilara Padasla Kallan, Gps Np Pipad Shahar_Ward No. 9 Rajasthan India 342601",342601,Hot Lead,Rajasthan Circle,Jodhpur Region,Jodhpur Division,Buchakallan BO,BO,Delivery,JODHPUR,RAJASTHAN,,,,,,,,,,
68361,Sanskriti Public School,"In front of guest house,
Shivpuri-Jhansi(NH25) Road,
Karera, Dist. Shivpuri (M.P.)
Pincode – 473660",473660,GharWapisi,Madhya Pradesh Circle,DivReportingCircle,Guna Division,Amola B.O,BO,Delivery,SHIVPURI,MADHYA PRADESH,,,,,,,,,,
68365,Empire College Of Science,"Moodal, Kuttippuram, Kerala 679571",679571,Hot Lead,Kerala Circle,Calicut Region,Tirur Division,Payinkanniyur BO,BO,Delivery,MALAPPURAM,KERALA,,,,,,,,,,
68366,ARQAM ENGLISH SCHOOL,"TATA NAGAR ,NEAR SUNNI JAMA MASJID OPP,C’BLOCK DEONAR MUNICIPAL COLONY GOVANDI MUMBAI 400043",400043,GharWapisi,Maharashtra Circle,Mumbai Region,Mumbai City North East Division,Shivaji Nagar SO Mumbai,PO,Delivery,MUMBAI SUBURBAN,MAHARASHTRA,,,,,,,,,,
68368,Sri Sai concept school-K.Reddeiah,"Kurnool - Ongole Main Rd, Samatha Nagar, Sujatha Nagar, Ongole, Andhra Pradesh 523002",523002,Hot Lead,Andhra Pradesh Circle,Vijayawada Region,Prakasam Division,Lawyer Pet (O) S.O,PO,Delivery,PRAKASAM,ANDHRA PRADESH,,,,,,,,,,
68375,Sunshine public school,"16/7 dodda gollarahatti, magadi, main road , banglore - 560091",560091,Existing School,Karnataka Circle,Bengaluru HQ Region,Bengaluru West Division,Bapagrama B.O,BO,Delivery,BENGALURU URBAN,KARNATAKA,,,,,,,,,,
68376,Gurukul Vidya Bhawan,"Gurukul Vidhya Bhawan Sec.School ,Address- Near Talab , Amrakunj,Dahod Road Thikariya, Banswara (Raj.), Pin Code-327001",327001,Existing School,Rajasthan Circle,Ajmer Region,Dungarpur Division,Jhupel B.O,BO,Delivery,BANSWARA,RAJASTHAN,,,,,,,,,,
68379,"Bachpan and Seven Star Convent School, Khunkhuna Station - Dinesh","Maulasar Rd, Maulasar, Rajasthan 341506, India",341506,GharWapisi,Rajasthan Circle,Jodhpur Region,Nagaur Division,Nimod B.O,BO,Delivery,NAGAUR,RAJASTHAN,,,,,,,,,,
68396,Bright Line Education,"Vpo Tikker, Shimla, India, Himachal Pradesh 173217",173217,GharWapisi,Himachal Pradesh Circle,DivReportingCircle,Solan Division,Dangheel BO,BO,Delivery,SOLAN,HIMACHAL PRADESH,,,,,,,,,,
68398,Baba Aapo Aap Guru Nanak Public School,"Nabha-Dhuri Link Road (SH-12A), Mansoorpur (Chhintanwala) Tehsil: Nabha District: Patiala, Punjab, INDIA, Sangrur - Nabha Rd, Chhintanwala, Punjab 147201, India",147201,GharWapisi,Punjab Circle,DivReportingCircle,Patiala Division,Babarpur BO,BO,Delivery,PATIALA,PUNJAB,,,,,,,,,,
68400,SVM CHILDRENS ACADEMY,"svm children's academy,diwan anagar khora bisal, Jairampura road, Jaipur, Pin - 302012",302012,Existing School,Rajasthan Circle,DivReportingCircle,Jaipur City Division,Hathoj B.O,BO,Delivery,JAIPUR,RAJASTHAN,,,,,,,,,,
68402,Gurukul International School,"Samarth Complex, Near Samarth Petroleum, Nashik-Saputara Highway, Dindori , Dindori, India, Maharashtra 422202",422202,Existing School,Maharashtra Circle,Navi Mumbai Region,Nasik Division,Indore B.O,BO,Delivery,NASHIK,MAHARASHTRA,,,,,,,,,,
68417,Shree Narsingh Vidhya Higher Secondary School-Sunil Kumar Upadhyay,"samba Ghagwal,M.S Radial Naran, Jammu & Kashmir 184141",184141,Existing School,Jammukashmir Circle,DivReportingCircle,Jammu Division,Jatwal BO,BO,Delivery,SAMBA,JAMMU AND KASHMIR,,,,,,,,,,
68585,Rose Public School,"V & Po Suliali Teh Nurpur Distt Kangra, Himachal Pradesh, 176211",176211,GharWapisi,Himachal Pradesh Circle,DivReportingCircle,Dharamsala Division,Hadal Uparli BO,BO,Delivery,KANGRA,HIMACHAL PRADESH,,,,,,,,,,
68597,Vipul Educational Institution,VIPUL PUBLIC SCHOOL Dungra chhota Teh. Sajjangarh Dist. Banswara Rajasthan 327602,327602,Existing School,Rajasthan Circle,Ajmer Region,Dungarpur Division,Andheshwar B.O,BO,Delivery,BANSWARA,RAJASTHAN,,,,,,,,,,
68624,YUG NIRMAN SHIKSHAN SANSTHAN SENIOR SECONDARY SCHOOL,"Yug Nirman shikshan sansthan inter college,Deoria Khas,,District -Deoria,State -U P,Pin code -274001",274001,Existing School,Uttar Pradesh Circle,Gorakhpur Region,Deoria Division,Deoria HO,HO,Delivery,DEORIA,UTTAR PRADESH,,,,,,,,,,
68638,Oriental Naga Academy-Khathing Luiram,"39W9+2G7, Ukhrul, Manipur 795142",795142,Hot Lead,North Eastern Circle,North Eastern Region,Manipur Division,Kharasom B.O,BO,Delivery,UKHRUL,MANIPUR,,,,,,,,,,
68640,LIMRA INSTITUTE (temporatr,ly closed),,,,,,,,,,,,,,,,,,,,
68650,Chaitanya Gurukul,"Mehkar Rd, DIST:, Chikhli, Maharashtra 443201",443201,GharWapisi,Maharashtra Circle,Nagpur Region,Buldana Division,Bharosa B.O,BO,Delivery,BULDHANA,MAHARASHTRA,,,,,,,,,,
68664,Shan-E-Sleeba Vidhya Mandir,"Adarsh Nagar, Kaytha, Tarana, Ujjain, M.P., Tarana, Ujjain - 456665",456665,GharWapisi,Madhya Pradesh Circle,Indore Region,Ujjain Division,Khajuria B.O,BO,Delivery,UJJAIN,MADHYA PRADESH,,,,,,,,,,
68672,SKS Doon World School-Vishnu Varshney,"SH 43, Budaun, Jakhaulia, Uttar Pradesh 243726,",243726,Hot Lead,Uttar Pradesh Circle,Bareilly Region,Budaun Division,Sohi BO,BO,Delivery,BUDAUN,UTTAR PRADESH,,,,,,,,,,
68678,Dream Valley Educational Institute-Altaf Maqbool,"Dream Valley Educational Institute Tangdar, District Kupwara, Tehsil Tarathpora, Pincode 193224",193224,Existing School,Jammukashmir Circle,DivReportingCircle,Baramulla Division,Aloosa B.O,BO,Delivery,KUPWARA,JAMMU AND KASHMIR,,,,,,,,,,
68685,GVJ International School,"Uppathur Rd, N. Venkateshwarapuram, Sattur, Peddureddipatti, Tamil Nadu 626205",626205,GharWapisi,Tamilnadu Circle,"Southern Region, Madurai",Virudhunagar Division,Mulliseval BO,BO,Delivery,VIRUDHUNAGAR,TAMIL NADU,,,,,,,,,,
68703,Elite Global School-Bhagirath Singh Rawat,"ROAD, Delanpur, Sailana, Madhya Pradesh 457001",457001,Hot Lead,Madhya Pradesh Circle,Indore Region,Ratlam Division,Dhamnod B.O,BO,Delivery,RATLAM,MADHYA PRADESH,,,,,,,,,,
68728,Shemford futuristic school kupwara- John Mohd,"Birpur, adjoining Imperial Resorts, Jammu, Jammu and Kashmir 181133",181133,Hot Lead,Jammukashmir Circle,DivReportingCircle,Jammu Division,Birpur BO,BO,Delivery,SAMBA,JAMMU AND KASHMIR,,,,,,,,,,
68729,"Vision Public School, Nagda","Vision Public School, 28/5, Prakash Nagar, Nagda Jn. 456335",456335,Existing School,Madhya Pradesh Circle,Indore Region,Ujjain Division,Banbana B.O,BO,Delivery,UJJAIN,MADHYA PRADESH,,,,,,,,,,
68733,GOLDEN VALLEY H S SCHOOL-Joydip Deb,"GOLDEN VALLEY H S SCHOOL, PADMAPUR, DHARMANAGAR, PIN 799250, TRIPURA",799250,Existing School,North Eastern Circle,Shillong HQ Region,Dharmanagar Division,Dharmanagar H.O,HO,Delivery,North Tripura,TRIPURA,,,,,,,,,,
68740,D.P.S.D Public School,"KANNAUJ BYPASS ROAD

BILGRAM DIST.HARDOI

UTTARPRADESH 241301",241301,GharWapisi,Uttar Pradesh Circle,Bareilly Region,Hardoi Division,Andharra BO,BO,Delivery,HARDOI,UTTAR PRADESH,,,,,,,,,,
68741,Rani Bhabani Vidyaniketan,"Rani Bhabani Vidyaniketan , Index No:-E3-099, Saderghat. Raghunathganj.Murshidabad, Pin -742225 , Phone - 03483356008/7407605008,9434441529",742225,Existing School,West Bengal Circle,Kolkata Region,Murshidabad Division,Raghunathganj HO,HO,Delivery,MURSHIDABAD,WEST BENGAL,,,,,,,,,,
68746,St.Anns College,"12-2-823, ST. ANNS COLLEGE, A/45, St Anns Rd, Santosh Nagar, Mehdipatnam, Hyderabad, Telangana 500028",500028,GharWapisi,Telangana Circle,Hyderabad City Region,Hyderabad City Division,Humayunnagar S.O,PO,Delivery,HYDERABAD,TELANGANA,,,,,,,,,,
68749,Creative Corner Pre School,"2129, Block A, Sector 10, Urban Estate, Jind, Haryana 126102",126102,GharWapisi,Haryana Circle,DivReportingCircle,Karnal Division,Ram Rai B.O,BO,Delivery,JIND,HARYANA,,,,,,,,,,
68757,Vedic Indian School-Naveen Kumar Nandey,"Harishankar lane, opposite aditya vision 7004508433, Haji Nagar Colony, Mithanpura, Muzaffarpur, Bihar 842002",842002,Hot Lead,Bihar Circle,Muzaffarpur Region,Muzaffarpur Division,Mushahari Farm BO,BO,Delivery,MUZAFFARPUR,BIHAR,,,,,,,,,,
68775,Yash Group of Institutes,Near Railway station Satona Kh TQ. Partur Dist Jalna Maharashtra 431502.,431502,Existing School,Maharashtra Circle,Aurangabad Region,Pharbhani Division,Mapegaon B.O,BO,Delivery,JALNA,MAHARASHTRA,,,,,,,,,,
68777,Lions Convent Higher Secondary School,"AB Rd, near Chhoti Bijasan ,NH3, Sendhwa, Pipaldhar, Madhya Pradesh 451666",451666,GharWapisi,Madhya Pradesh Circle,Indore Region,Khandwa Division,Balwadi B.O,BO,Delivery,BARWANI,MADHYA PRADESH,,,,,,,,,,
68806,Embesow Matric High School,"M . C Road, Marapattu Girisamudra, Vaniyambadi HO, Vaniyambadi - 635751 (Near To Naser Bali Company Ltd)",635751,GharWapisi,Tamilnadu Circle,"Western Region, Coimbatore",Tirupattur Division,Valayambattu B.O,BO,Delivery,Tirupathur,TAMIL NADU,,,,,,,,,,
68821,Golden Spring School-Patan Sak,"Khan Estate, T.Sakibanda, Andhra Pradesh 516214",516214,Hot Lead,Andhra Pradesh Circle,Kurnool Region,Cuddapah Division,Reddyvaripalli B.O,BO,Delivery,Y.S.R.,ANDHRA PRADESH,,,,,,,,,,
68841,Kudos International School-Dr Kuljeet kaur,"Kudos International School, Add:- Nainwan Road, Near Bahadur Singh Circle Bundi - Rajasthan, Pin code 323001, Phone 07472457336, Mobile 9828117001",323001,Existing School,Rajasthan Circle,Ajmer Region,Tonk Division,Badodiya B.O,BO,Delivery,BUNDI,RAJASTHAN,,,,,,,,,,
68842,Satyaketu Vidyalaya-Yudhvir Singh,"KOTLI MIAN FATEH, R S PURA, Jammu, Jammu and Kashmir 181132",181132,Hot Lead,Jammukashmir Circle,DivReportingCircle,Jammu Division,Darap BO,BO,Delivery,JAMMU,JAMMU AND KASHMIR,,,,,,,,,,
68879,New Light Public School,"New Light Public School, Chitterkote karnah kupwara J&K 193225",193225,GharWapisi,Jammukashmir Circle,DivReportingCircle,Baramulla Division,Chamkote B.O,BO,Delivery,KUPWARA,JAMMU AND KASHMIR,,,,,,,,,,
68913,Maharishi Dayanand Public School,"345- a/11 Near C.R.P.F. GC-1 MASUDA GATE, Ajmer, Rajasthan 305001",305001,Existing School,Rajasthan Circle,Ajmer Region,Ajmer Division,Ajmer H.O,HO,Delivery,AJMER,RAJASTHAN,,,,,,,,,,
68925,Gurukul International Convent School akash yadav,"Janakpur Near Darauli Railway station, Muhammadpur Phooli Road, Zamania, Uttar Pradesh 232326",232326,Hot Lead,Uttar Pradesh Circle,Allahabad Region,Ghazipur Division,Mircha BO,BO,Delivery,GHAZIPUR,UTTAR PRADESH,,,,,,,,,,
68935,Elite Minds School,"Elite Minds International School Campus, Village Chinniga, Jannapura - Mudigere, Karnataka 577132",577132,Hot Lead,Karnataka Circle,South Karnataka Region,Chikkamagaluru Division,Bettadamane B.O,BO,Delivery,CHIKKAMAGALURU,KARNATAKA,,,,,,,,,,
68949,PBS Gurukul-bhagvat sonawane,"74/1 Near Railway Flyover, Kotamgaon Kh, Yeola, Maharashtra 423401",423401,Hot Lead,Maharashtra Circle,Navi Mumbai Region,Malegaon Division,Erandgaon Jeur B.O,BO,Delivery,NASHIK,MAHARASHTRA,,,,,,,,,,
68950,Ashram High School-Father Thomas,"Ashram Vidyalaya, Malikhedi, Ghattia, Ujjain, Ghattia, Ujjain - 456550",456550,GharWapisi,Madhya Pradesh Circle,Indore Region,Ujjain Division,Dhabla Hardu B.O,BO,Delivery,UJJAIN,MADHYA PRADESH,,,,,,,,,,
68972,Tunga Pre-Primary School-Selvam R S Subramani,"Tunga Pre and Primary School, Hospet - 583225 (Behind Anjenaya Temple)",583225,Hot Lead,Karnataka Circle,North Karnataka Region,Ballari Division,T B Dam S.O,PO,Delivery,BALLARI,KARNATAKA,,,,,,,,,,
69043,SHEILING HOUSE,"Zoe Ville, 10/498, Allenganj, Kanpur, Uttar Pradesh 208001",208001,Hot Lead,Uttar Pradesh Circle,Kanpur Region,Kanpur City Division,Maholi BO,BO,Delivery,KANPUR NAGAR,UTTAR PRADESH,,,,,,,,,,
69066,Sanskriti Global School Badnagar,"The Sanskriti Global School, SH-18, Ujjain Barnagar Highway, Near Kharsod khurd, Barnagar, Distt. Ujjain 456222",456222,Existing School,Madhya Pradesh Circle,Indore Region,Ujjain Division,Akasoda B.O,BO,Delivery,UJJAIN,MADHYA PRADESH,,,,,,,,,,
69182,G NEXT MODEL SCHOOL,"Kamalpur - Khowai Rd, Khowai, Tripura 799202",799202,GharWapisi,North Eastern Circle,Shillong HQ Region,Dharmanagar Division,Khowai Court S.O,PO,Delivery,Khowai,TRIPURA,,,,,,,,,,
69258,Royal Public School-Rakesh Meena,"Jamoli Pin Code 311201 School Area Rural Cluster Gups Rampura, Jamoli Block Jahajpur District Bhilwara State Rajasthan",311201,Hot Lead,Rajasthan Circle,Ajmer Region,Bhilwara Division,Amarwasi B.O,BO,Delivery,BHILWARA,RAJASTHAN,,,,,,,,,,
69334,Pratibha Academy,"Pratibha Academy, opp. Nutan Club, Nana Bazaar, Vallabh Vidyanagar, Gujarat 388120",388120,Hot Lead,Gujarat Circle,Vadodara Region,Anand Division,Vallabh Vidyanagar SO,PO,Delivery,ANAND,GUJARAT,,,,,,,,,,
69342,Sri Vasavi English Medium School,"P.Anil Kumar, Join Secretary , Sri Vasavi English Medium School - Srirampura - 577542 , Hosdurga tq , Chitradurga Dist - Karnataka State",577542,Hot Lead,Karnataka Circle,South Karnataka Region,Chitradurga Division,Gavirangapura B.O,BO,Delivery,CHITRADURGA,KARNATAKA,,,,,,,,,,
69421,"St Rameshwar Central School ,Nirbhay Kumar Nirala","Main Road, Bharwara, Bishunathpatti, Bihar 847104",847104,Hot Lead,Bihar Circle,Muzaffarpur Region,Darbhanga Division,Kora BO,BO,Delivery,DARBHANGA,BIHAR,,,,,,,,,,
69428,AJM English School,"Howriapet No.2, Kachugaon
Kokrajhar, Assam
PIN Code: 783360 (INDIA)",783360,GharWapisi,Assam Circle,DivReportingCircle,Goalpara Division,Panbari Bazar B.O,BO,Delivery,KOKRAJHAR,ASSAM,,,,,,,,,,
69493,SGM UPPER PRIMARY SCHOOL PAGARIYA,"Village Pagariya, Pagariya, Pt. Samiti Bhawanimandi Tehsil Pachpahar, District Jhalawar, Rajasthan, Pin Code 326512",326512,Hot Lead,Rajasthan Circle,Ajmer Region,Kota Division,Awar B.O,BO,Delivery,JHALAWAR,RAJASTHAN,,,,,,,,,,
69562,Devnandan Inter College,DHARWAN GHAZIPUR Uttar Pradesh 233302,233302,Hot Lead,Uttar Pradesh Circle,Allahabad Region,Ghazipur Division,Alipur Bangawan BO,BO,Delivery,GHAZIPUR,UTTAR PRADESH,,,,,,,,,,
69575,Village Montessori School - DrShiv Mohan,"Mishrana, Khaprel Bazar, Lakhimpur, Kapoorthala Road, Kheri, Lakhimpur Kheri - 262701",262701,Hot Lead,Uttar Pradesh Circle,Bareilly Region,Kheri Division,Midania BO,BO,Delivery,KHERI,UTTAR PRADESH,,,,,,,,,,
69576,Cambridge Convent School Bikaner,"sector v1, Murlidhar Vyas Colony, Bikaner, Rajasthan 334004",334004,GharWapisi,Rajasthan Circle,Jodhpur Region,Bikaner Division,Bangalanagar S.O,PO,Delivery,BIKANER,RAJASTHAN,,,,,,,,,,
69610,"BeST PU College, Raichur","Lingsugar Rd, opp. agriculture university, Daft Colony, Housing Board, Askihal, Raichur, Karnataka 584101, India",584101,GharWapisi,Karnataka Circle,North Karnataka Region,Raichur Division,Raichur H.O,HO,Delivery,RAICHUR,KARNATAKA,,,,,,,,,,
69756,Sunny Convent Public School Haiderpur,"105, Haiderpur, Delhi, 110088",110088,GharWapisi,Delhi Circle,DivReportingCircle,Delhi North Division,Shalamar BO,BO,Delivery,NORTH,DELHI,,,,,,,,,,
69759,Bengal Public School - Arindam Sinha,"SH 7, Sherpur, Khargram, Ramchandrapur, West Bengal 742159",742159,Hot Lead,West Bengal Circle,Kolkata Region,Murshidabad Division,Sadal BO,BO,Delivery,MURSHIDABAD,WEST BENGAL,,,,,,,,,,
69764,BRAHMA BABA TECHNO SCHOOL,"Janagaon,Titaguri Part-II. P.O: Titaguri B.T.A.D, Assam 783370, India",783370,GharWapisi,Assam Circle,DivReportingCircle,Goalpara Division,Daloabari B.O,BO,Delivery,KOKRAJHAR,ASSAM,,,,,,,,,,
69809,Archimedes international school,"Sant Ghat Rd, Hat Saraiya, Bettiah, Bihar 845438",845438,GharWapisi,Bihar Circle,Muzaffarpur Region,West Champaran Division,Barwat Pasrain BO,BO,Delivery,PASHCHIM CHAMPARAN,BIHAR,,,,,,,,,,
69877,Shri Bajrang College of Pharmacy Shiksha Samity,"RJ SH 14, Bhuda, Deeg, Rajasthan 321203",321203,GharWapisi,Rajasthan Circle,DivReportingCircle,Bharatpur Division,Nigoi B.O,BO,Delivery,BHARATPUR,RAJASTHAN,,,,,,,,,,
70024,Enlighten Public School - krishna mohan kumar,"Maa Shitla Gali, Aurai, Muzaffarpur - 843312 (Near Arai Block)",843312,GharWapisi,Bihar Circle,Muzaffarpur Region,Muzaffarpur Division,Bhalura BO,BO,Delivery,MUZAFFARPUR,BIHAR,,,,,,,,,,
70031,SBSR Inter College- Avtansh Yadav,"SBSR INTER COLLEGE VILL- VIRAYAMPUR POST- PILKHANA DISTT- FARRUKHABAD PIN 209501, MOB -9528132414",209501,Existing School,Uttar Pradesh Circle,Kanpur Region,Fatehgarh Division,Babna BO,BO,Delivery,FARRUKHABAD,UTTAR PRADESH,,,,,,,,,,
70039,KD CONVENT SCHOOL,"Vangaon, Uttar Pradesh 224151",224151,GharWapisi,Uttar Pradesh Circle,Lucknow HQ Region,Faizabad Division,Ashrafpur Barwa BO,BO,Delivery,AMBEDKAR NAGAR,UTTAR PRADESH,,,,,,,,,,
70105,SRPV Bhavapur-Sandeep Singh,"School Location Saharah, Mugkalyan Howrah, PIN - 711312",711312,Hot Lead,West Bengal Circle,South Bengal Region,Howrah Division,Baidyanathpur BO,BO,Delivery,HOWRAH,WEST BENGAL,,,,,,,,,,
70115,Tagore Central Academy,Himanshu jhankal House no 145 Gyan Vihar colony behind Queen Mary girls school ajmer  305001,305001,Existing School,Rajasthan Circle,Ajmer Region,Ajmer Division,Ajmer H.O,HO,Delivery,AJMER,RAJASTHAN,,,,,,,,,,
70156,Little Rose English school Basar,"ego yamin village, Basar, India, Arunachal Pradesh 791101",791101,GharWapisi,North Eastern Circle,Shillong HQ Region,Arunachal Pradesh Division,Dali B.O,BO,Delivery,LEPARADA,ARUNACHAL PRADESH,,,,,,,,,,
70162,LBS College pratapgarh,"National Highway 113 Banswara, road, Pratapgarh, Rajasthan 312605",312605,Hot Lead,Rajasthan Circle,Ajmer Region,Chittorgarh Division,Basad B.O,BO,Delivery,PRATAPGARH,RAJASTHAN,,,,,,,,,,
70169,DS Public School-Sanad Saxena,"OCTORI NO, 08, NAWA PURBA, Firozpur, Punjab 152004",152004,Hot Lead,Punjab Circle,Punjab West Region,Ferozpur Division,Dastul Sahib BO,BO,Delivery,FIROZEPUR,PUNJAB,,,,,,,,,,
70224,Saraswati Gyan Mandir,"Diwakari, Umrain Alwar, Rajasthan PIN Code: 301001",301001,Hot Lead,Rajasthan Circle,DivReportingCircle,Alwar Division,Madhogarh B.O,BO,Delivery,ALWAR,RAJASTHAN,,,,,,,,,,
70285,St Xaviers Point School-Vijay Dubey,"37, Suren Sarkar Road, Beliaghata, Kolkata - 700010 (Near Milan Mandir, CIT More)",700010,Hot Lead,West Bengal Circle,Kolkata Region,Kolkata East Division,Beleghata HO,HO,Delivery,KOLKATA,WEST BENGAL,,,,,,,,,,
70297,"Anandi Academy, Bageshwar","Chandan Singh parihar ,C/o Anandi Academy Bankhola Mandalsera Bageshwar, Uttarakhand, Pin 263642, Mobile:9719862206, E mail: chandanparihar65@gmail.com",263642,Existing School,Uttarakhand Circle,DivReportingCircle,Almora Division,Bhatoli BO,BO,Delivery,BAGESHWAR,UTTARAKHAND,,,,,,,,,,
70318,Vivekanand mission jivkorba English School- Kalyan Roy,"Gj Sh 143, Mamlatdar Kacheri, Talod, Sabarkantha - 383215",383215,Hot Lead,Gujarat Circle,Ahmedabad HQ Region,Sabarkantha Division,Boria Bechraji BO,BO,Delivery,SABAR KANTHA,GUJARAT,,,,,,,,,,
74129,Green mount English school -Javed Jamal,"Green Mount School,'F’-Sector, Itanagar-791113 Arunachal Pradesh (India)",791113,Hot Lead,North Eastern Circle,Shillong HQ Region,Arunachal Pradesh Division,Jully B.O,BO,Delivery,PAPUM PARE,ARUNACHAL PRADESH,,,,,,,,,,
74175,NEW ANGEL HIGHER SECONDARY SCHOOL,"New Angel Higher Secondary School, CADC, Kamalanagar I, Kamalanagar, Mizoram 796772",796772,GharWapisi,North Eastern Circle,North Eastern Region,Mizoram Division,Kamalanagar S.O (Lawngtlai),PO,Delivery,LAWNGTLAI,MIZORAM,,,,,,,,,,
74234,St. Gorakh Nath Children Academy,"St. Gorakh Nath Children Academy, near Post Office, Kandhla, Uttar Pradesh 247775",247775,Existing School,Uttar Pradesh Circle,Bareilly Region,Muzaffarnagar Division,Dundu Khera BO,BO,Delivery,SHAMLI,UTTAR PRADESH,,,,,,,,,,
74594,Deoria Private ITI - Pawan Kumar,"Deoria Private ITI, Krishna Nagar Deoria Khas, District - Deoria, UP 274001",274001,Existing School,Uttar Pradesh Circle,Gorakhpur Region,Deoria Division,Deoria HO,HO,Delivery,DEORIA,UTTAR PRADESH,,,,,,,,,,
74832,Madam Curie High School-Vaishnv Garasiya,"F7HF+476, Kukdeshwar, Madhya Pradesh 458116",458116,Hot Lead,Madhya Pradesh Circle,Indore Region,Mandsaur Division,Khadawda B.O,BO,Delivery,NEEMUCH,MADHYA PRADESH,,,,,,,,,,
75028,Jnana Mudra Public School - Kiran kalaskar,"Old, APMC Rd, Nargund, Karnataka 582207",582207,GharWapisi,Karnataka Circle,North Karnataka Region,Gadag Division,Banhatti B.O,BO,Delivery,GADAG,KARNATAKA,,,,,,,,,,
75356,Noon Public High School-Abdul Hussain Muntazree,"Noon Public High School sankoo,Sankoo Block, Kargil District, Jammu Kashmir State,194103",194103,GharWapisi,Jammukashmir Circle,Srinagar HQ Region,Leh Division,SALISKOT B.O,BO,Delivery,KARGIL,LADAKH,,,,,,,,,,
75364,M.S.G.M. INTER COLLEGE KUSMARA,"Jawapur, Kishani, Mainpuri, 205119, Uttar Pradesh, India Call: 9412624204,9758669037",205119,Hot Lead,Uttar Pradesh Circle,Agra Region,Mainpuri Division,Darwah BO,BO,Delivery,MAINPURI,UTTAR PRADESH,,,,,,,,,,
75507,"Times Gurukul, Jagatsinghpur","Taradapada, Jagatsinghpur, Jagatsinghpur, Orissa, PIN Code: 754103 (INDIA)",754103,Hot Lead,Odisha Circle,DivReportingCircle,Cuttack South Division,Jagatsinghpur H.O,HO,Delivery,JAGATSINGHAPUR,ODISHA,,,,,,,,,,
75574,LOTUS PUBLIC SCHOOL,"In Front of Govt. Gattani Girls School Gali, Ward No. 10, Akaltara Road, Janjgir, Dist. Janjgir-Chama (C.G.) 495668, Janjgir, India, Chhattisgarh",495668,GharWapisi,Chattisgarh Circle,DivReportingCircle,Bilaspur Division,Amora BO,BO,Delivery,JANJGIR-CHAMPA,CHHATTISGARH,,,,,,,,,,
75586,Sun Valley International School,"A-1, Ashok Marg, Sector-1, Vaishali, Ghaziabad, Uttar Pradesh 201010",201010,GharWapisi,Uttar Pradesh Circle,Lucknow HQ Region,Ghaziabad Division,Hasanpur Bhowapur BO,BO,Delivery,GHAZIABAD,UTTAR PRADESH,,,,,,,,,,
76003,THE SANKALP SCHOOL,"VILLAGE KARNERA, NEAR SEC 56A, BALLABGARH, FARIDABAD, HARYANA 121004",121004,GharWapisi,Haryana Circle,DivReportingCircle,Faridabad Division,Gadpuri BO,BO,Delivery,PALWAL,HARYANA,,,,,,,,,,
76009,"Royal Public School, CHURHAT, SIDHI -RAJESH KUMAR GUPTA","Churhat, Madhya Pradesh 486771",486771,GharWapisi,Madhya Pradesh Circle,Jabalpur Region,Rewa Division,Ukarha B.O,BO,Delivery,SIDHI,MADHYA PRADESH,,,,,,,,,,
76046,SYNOD ENGLISH MISSION SCHOOL,"Ward no 2, Gauripur, Dhubri(Dist), Assam. 783331",783331,Existing School,Assam Circle,DivReportingCircle,Goalpara Division,South Geramari B.O,BO,Delivery,DHUBRI,ASSAM,,,,,,,,,,
76602,Day Light Public School-,"Ward No 2, Virat Nagar, Virat Nagar, Satna - 485001",485001,Hot Lead,Madhya Pradesh Circle,Jabalpur Region,Satna Division,Bharhut B.O,BO,Delivery,SATNA,MADHYA PRADESH,,,,,,,,,,
77181,Vardaan Play School-Sanjit Pattnaik,"Narayani Road, Phulbani, Kandhamal, Pin: 762001",762001,GharWapisi,Odisha Circle,Berhampur Region,Phulbani Division,Phulbani H.O,HO,Delivery,KANDHAMAL,ODISHA,,,,,,,,,,
78190,Geeta International Public School,"Ravindra Nagar, Ravindra Nagar, Padrauna - 274304 (Near Jila Mukhalaya)",274304,GharWapisi,Uttar Pradesh Circle,Gorakhpur Region,Deoria Division,Padrauna HO,HO,Delivery,KUSHI NAGAR,UTTAR PRADESH,,,,,,,,,,
78890,Cambridge School Yadgir,"Valmiki Nagar, Yadgiri, Karnataka 585201.",585201,GharWapisi,Karnataka Circle,North Karnataka Region,Kalaburagi Division,Yadgiri H.O,HO,Delivery,YADGIR,KARNATAKA,,,,,,,,,,
80158,SR public school - Pk Pandey,"Manjha Tarhar, near pathri bazar Gonda, India, Uttar Pradesh 271123",271123,GharWapisi,Uttar Pradesh Circle,Gorakhpur Region,Gonda Division,Bhgahar Buland BO,BO,Delivery,GONDA,UTTAR PRADESH,,,,,,,,,,
80404,Future Genius Academy- Mohhan Vaishnav,"Future Genius Academy , Pathwari ke piche, High Secondary Road, Sarwar. Pin code 305403, Mobile no. - 9672970991",305403,Existing School,Rajasthan Circle,Ajmer Region,Beawar Division,Bhagwan Pura B.O,BO,Delivery,AJMER,RAJASTHAN,,,,,,,,,,
80783,"Newlight Education Centre, Rajpur kanpur - pallvi chauhan","New Light Education Centre Rajpur Kanpur Dehat, near police station, Rajpur, Uttar Pradesh 209115",209115,GharWapisi,Uttar Pradesh Circle,Kanpur Region,Kanpur Moffusil Division,Rasdhan BO,BO,Delivery,KANPUR DEHAT,UTTAR PRADESH,,,,,,,,,,
80808,ram lakhan patel vidhyalaya-vikash prajapati,"Pilkhawan, Post, Barwa, Sohawal, Faizabad, Pincode-224182, Uttar Pradesh, India",224182,Hot Lead,Uttar Pradesh Circle,Lucknow HQ Region,Faizabad Division,Barwa BO,BO,Delivery,AYODHYA,UTTAR PRADESH,,,,,,,,,,
80879,St. Joseph's Convent Girls High School,"Indira Nagar, Kalaburagi, Gulbarga Karnataka 585102, India",585102,GharWapisi,Karnataka Circle,North Karnataka Region,Kalaburagi Division,Hadagil Haruthi B.O,BO,Delivery,KALABURAGI,KARNATAKA,,,,,,,,,,
80920,"CHANAKYA EDUCATION GROUP, JHARELI - DEVA RAM NAIN","N.H. 58, BY PASS ROAD, Jhareli, Rajasthan 341022",341022,GharWapisi,Rajasthan Circle,Jodhpur Region,Nagaur Division,Akora B.O,BO,Delivery,NAGAUR,RAJASTHAN,,,,,,,,,,
80929,Mathan School of Music-Praveen Sir,"1759 MJT Buildings, Olumbus Ramanathapuram, Coimbatore 641045",641045,Existing School,Tamilnadu Circle,"Western Region, Coimbatore",Coimbatore Division,Ramanathapuram Coimbatore SO,PO,Delivery,COIMBATORE,TAMIL NADU,,,,,,,,,,
80981,"Sai Ram International School, Manguwal,Himachal Pradesh","Sai Ram international school, Manguwal PO. Rajpura Tehsil Nalagarh District Solan, Himachal Pradesh Pin no. 174101",174101,Existing School,Himachal Pradesh Circle,DivReportingCircle,Solan Division,Baruna BO,BO,Delivery,SOLAN,HIMACHAL PRADESH,,,,,,,,,,
81259,Stepping Stones International School,"Principal, Stepping Stones International School. Beas complex, Near Circuit House. Bilaspur HP 174001, Mob 8988155000",174001,Existing School,Himachal Pradesh Circle,DivReportingCircle,Hamirpur Division,Dobha BO,BO,Delivery,BILASPUR,HIMACHAL PRADESH,,,,,,,,,,
81433,UP Public School,"Up public school, Vill- tenua narauli bhikham, Post -khukhundu, Distt -deoria up 274501",274501,Existing School,Uttar Pradesh Circle,Gorakhpur Region,Deoria Division,Jaitpura BO,BO,Delivery,DEORIA,UTTAR PRADESH,,,,,,,,,,
81437,RK Bansal International School,"R. K. Bansal International School, Village Kamed, Ujjain-Nagda Bypass, Near Mangalnath Temple, Ujjain (MP)-456006",456006,Existing School,Madhya Pradesh Circle,Indore Region,Ujjain Division,Panbihar B.O,BO,Delivery,UJJAIN,MADHYA PRADESH,,,,,,,,,,
81511,"Divine Public School, Gorakhpur","Bichhia Near PAC Camp
Gorakhpur- 273014",273014,GharWapisi,Uttar Pradesh Circle,Gorakhpur Region,Gorakhpur Division,Jungle Dhushar BO,BO,Delivery,GORAKHPUR,UTTAR PRADESH,,,,,,,,,,
81540,Pragya International School,"Pragya International School, Ward No 2, Pragya Road, Bijainagar Dist. Beawar Pin Code 305624",305624,Existing School,Rajasthan Circle,Ajmer Region,Beawar Division,Badi B.O,BO,Delivery,AJMER,RAJASTHAN,,,,,,,,,,
81590,"DG Agrawal Memorial Senior Secondary School, Chinchpada","Smt. D g Agrawal Memorial English Medium School, Chinchpada Near Railway StationTal.Navapur,Dist.Nandurbar,Maharashtra,Pin. 425417",425417,Existing School,Maharashtra Circle,Aurangabad Region,Dhule Division,Bandhare B.O,BO,Delivery,NANDURBAR,MAHARASHTRA,,,,,,,,,,
81670,Sridhar's Academy,"Subbaiah colony, Avilala, Tirupati, Andhra Pradesh 517501",517501,GharWapisi,Andhra Pradesh Circle,Kurnool Region,Tirupati Division,Tirupati H.O,HO,Delivery,CHITTOOR,ANDHRA PRADESH,,,,,,,,,,
81743,Rockford Academy,"ROCKFORD ACADEMY, Saribari Square, Sodang, Unhel Road, Ujjain 456006 MP",456006,Existing School,Madhya Pradesh Circle,Indore Region,Ujjain Division,Panbihar B.O,BO,Delivery,UJJAIN,MADHYA PRADESH,,,,,,,,,,
81745,Swami Vivekanand and Rameshwar School,"Swami Vivekanand Vidyalay, Nanja Phata, Kshirsagar, Jalna Road, Bhokardan, Bhokardan, Maharashtra 431114",431114,GharWapisi,Maharashtra Circle,Aurangabad Region,Aurangabad Division,Kathora B.O,BO,Delivery,JALNA,MAHARASHTRA,,,,,,,,,,
81778,Seth Anandram Jaipuria School,"Sector-14-C, Vasundhara, Ghaziabad - 201012",201012,GharWapisi,Uttar Pradesh Circle,Lucknow HQ Region,Ghaziabad Division,Vasundhra SO,PO,Delivery,GHAZIABAD,UTTAR PRADESH,,,,,,,,,,
81808,NEW HORIZON WORLD ACADEMY,New horizon world academy Plot no 58 to 62 sector 20 koparkhairne 400709,400709,Existing School,Maharashtra Circle,Navi Mumbai Region,Navi Mumbai Division,Kopar Khairne S.O,PO,Delivery,THANE,MAHARASHTRA,,,,,,,,,,
81814,Phoenix International,"Plot no 32 & 33, Sector 3, Airoli, Navi Mumbai 400708",400708,GharWapisi,Maharashtra Circle,Navi Mumbai Region,Navi Mumbai Division,Airoli S.O,PO,Delivery,THANE,MAHARASHTRA,,,,,,,,,,
81860,Satyam Bright Future Public School Mathura,Satyam bright future public school near Bansal vatika Aurangabad road mathura 281006,281006,Existing School,Uttar Pradesh Circle,Agra Region,Mathura Division,Adooki BO,BO,Delivery,MATHURA,UTTAR PRADESH,,,,,,,,,,
81908,"THE CRESCENT SCHOOL,Main Branch, Kaptanganj","Dr Mohd Hasib , Main Branch, The Crescent School, Chilwan, Tahsil KAPTANGANJ, Kushinagar U.P. 274301",274301,Existing School,Uttar Pradesh Circle,Gorakhpur Region,Deoria Division,Atharaha BO,BO,Delivery,KUSHI NAGAR,UTTAR PRADESH,,,,,,,,,,
81910,Aakarsh career institute pvt ltd,"UJJWALA BHOYAR, ADDRESS :- AAKARSH CAREER INSTITUTE PVT LTD, 2ND FLOOR,57, PRADIP, BUILDING,MOUNT ROAD, SADAR NAGPUR, MAHARASHTRA 440001., Mob. 7020125296",440001,Existing School,Maharashtra Circle,Nagpur Region,Nagpur City Division,Nagpur GPO,HO,Delivery,NAGPUR,MAHARASHTRA,,,,,,,,,,
81921,Morning Glory Public High School,"School Enclave, Pur Hiran, Hoshiarpur, Punjab 146001",146001,GharWapisi,Punjab Circle,Punjab West Region,Hoshiarpur Division,Hoshiarpur HO,HO,Delivery,HOSHIARPUR,PUNJAB,,,,,,,,,,
81925,THE EMERALD HEIGHTS INTERNATIONAL SCHOOL,"AB Road, Rau, Opposite Akashwani, Indore, MP, India – 453331, Phone - 8720009992 / 93",453331,Bloom,Madhya Pradesh Circle,Indore Region,Indore Moffusil Division,Rangwasa B.O,BO,Delivery,INDORE,MADHYA PRADESH,,,,,,,,,,
81934,legend school,"Station road, Maharaja petrol pump dumraon 802119",802119,Existing School,Bihar Circle,DivReportingCircle,Bhojpur Division,Baruna RS BO,BO,Delivery,BUXAR,BIHAR,,,,,,,,,,
82025,Rani Bhabani International School,"Rani Bhabani Vidyaniketan , Index No:-E3-099, Saderghat. Raghunathganj.Murshidabad, Pin - 742225, Phone - 03483356008/7407605008,9434441529",742225,Existing School,West Bengal Circle,Kolkata Region,Murshidabad Division,Raghunathganj HO,HO,Delivery,MURSHIDABAD,WEST BENGAL,,,,,,,,,,
82054,K.H. Memorial School,"`K H Knowledge City, Jawahar Nagar, Bhilai, Chhattisgarh 490023",490023,Hot Lead,Chattisgarh Circle,DivReportingCircle,Durg Division,Supela Bhilai SO,PO,Delivery,DURG,CHHATTISGARH,,,,,,,,,,
82099,S. Tech international School,"NH service road, suras chauraha NH, via, near palana temple, Pansal, Rajasthan 311802",311802,Hot Lead,Rajasthan Circle,Ajmer Region,Bhilwara Division,Bhopalgarh B.O,BO,Delivery,BHILWARA,RAJASTHAN,,,,,,,,,,
82179,Achievers International School School,"Achievers international school, Add:- Jawahar chowk koudiya Gadarwara Madhya Pradesh, 487555, Contact 9691606090,9907999940",487555,Existing School,Madhya Pradesh Circle,DivReportingCircle,Hoshangabad Division,Attayasa B.O,BO,Delivery,NARSINGHPUR,MADHYA PRADESH,,,,,,,,,,
82209,Sans Public School,"3rd Cross Rd, Kanthirava Layout, Kanteerava Nagar, Nandini Layout, Bengaluru, Karnataka 560096",560096,Hot Lead,Karnataka Circle,Bengaluru HQ Region,Bengaluru West Division,Nandinilayout S.O,PO,Delivery,BENGALURU URBAN,KARNATAKA,,,,,,,,,,
82225,Samrat Ashok College,"238/239 Green Height, A-Sec, Sarvadharm Kolar, Bhopal - 462042",462042,Existing School,Madhya Pradesh Circle,DivReportingCircle,Bhopal Division,Amarawat Kalan B.O,BO,Delivery,BHOPAL,MADHYA PRADESH,,,,,,,,,,
82250,Sacrarium Public School,"Post Office Rampur, Bushahr, Distt. Shimla-172001 Contact -9805900170",172001,Positive Demo,Himachal Pradesh Circle,DivReportingCircle,Rampur Bushahr Division,Naula BO,BO,Delivery,SHIMLA,HIMACHAL PRADESH,,,,,,,,,,
82255,Silicon Acadmey,"76, Gali Number 3, Ward 7, Sanwer Road Industrial Area, Indore, Madhya Pradesh 452015",452015,Bloom,Madhya Pradesh Circle,Indore Region,Indore City Division,Industrial Estate S.O (Indore),PO,Delivery,INDORE,MADHYA PRADESH,,,,,,,,,,
82256,Suman convent school,"Village Ataheda Tehsil Depalpur, Depalpur, Indore - 453115 (Zila Indore)",453115,Bloom,Madhya Pradesh Circle,Indore Region,Indore Moffusil Division,Banedia B.O,BO,Delivery,INDORE,MADHYA PRADESH,,,,,,,,,,
82257,Modern public school indore,"Son Vay - Modern Public School, Mhow, Indore, Madhya Pradesh. PIN CODE - 453332",453332,Bloom,,,,,,,,,,,,,,,,,,
82259,Mohammd Shoib,"1 Khajrana Main Road Sardar Bagh, behind Patel Market, Khajrana, Indore, Madhya Pradesh 452016, Phone - 092032 07201",452016,Bloom,Madhya Pradesh Circle,Indore Region,Indore City Division,Buranakhedi B.O,BO,Delivery,INDORE,MADHYA PRADESH,,,,,,,,,,
82262,Mp police public hr sec school,"15th Batallion. S.A.F., Mahesh Guard Line Indore, Indore Gpo, Indore - 452001",452001,Bloom,Madhya Pradesh Circle,Indore Region,Indore City Division,Indore G.P.O.,HO,Delivery,INDORE,MADHYA PRADESH,,,,,,,,,,
82264,Ryan international Indore,"97/4,VIP Parasper Nagar Near IDA Auditorium, Indore, M.P. (school website),PIN-452012",452012,Bloom,Madhya Pradesh Circle,Indore Region,Indore City Division,Rajendra Nagar S.O (Indore),PO,Delivery,INDORE,MADHYA PRADESH,,,,,,,,,,
82267,Shree hd prajapati academy,"Shri S D Prajapati academy, 91/1, Main Road, Banganga, Indore, Madhya Pradesh 452015",452015,Bloom,Madhya Pradesh Circle,Indore Region,Indore City Division,Industrial Estate S.O (Indore),PO,Delivery,INDORE,MADHYA PRADESH,,,,,,,,,,
82268,Shubharambh academy,"Chaman Chouraha Depalpur, Madhya Pradesh 453115 Contact - 7389655596",453115,Positive Demo,Madhya Pradesh Circle,Indore Region,Indore Moffusil Division,Banedia B.O,BO,Delivery,INDORE,MADHYA PRADESH,,,,,,,,,,
82270,Gyan sagar school ujjain,"Near Abhilasha Colony Dewas Road, Gram: Hamukhedi UJJAIN - 456010 Madhya Pradesh - INDIA Phone No.: +91 - 734 - 2526176, + 91 - 7509075008",456010,Bloom,Madhya Pradesh Circle,Indore Region,Ujjain Division,Ujjain M.L.Nagar S.O,PO,Delivery,UJJAIN,MADHYA PRADESH,,,,,,,,,,
82274,Yugantar international,"Yugantar international, Gram Undasa, Kanipura Tarana Road, Ujjain (M.P.) 456006, +91-7440371111",456006,Bloom,Madhya Pradesh Circle,Indore Region,Ujjain Division,Panbihar B.O,BO,Delivery,UJJAIN,MADHYA PRADESH,,,,,,,,,,
82275,Samta international school,"SAMTA SHIKSHA NIKETAN Bhagwan Mahavir Marg Sagod Road Ratlam 457001 Madhya Pradesh, 07412 243066 9589324306",457001,Bloom,Madhya Pradesh Circle,Indore Region,Ratlam Division,Dhamnod B.O,BO,Delivery,RATLAM,MADHYA PRADESH,,,,,,,,,,
82277,pakiza school Indore,"Pakiza Public School: U-Turn from Ankur Rehab Center, Sai Vihar Colony, Gram Jetpura, Near Dharampuri, Ujjain Road, Indore (M.P.) Pincode - 453555, +91 9109908802, +91 9109908804",453555,Bloom,Madhya Pradesh Circle,Indore Region,Indore Moffusil Division,Shri Aurobindo S.O,PO,Delivery,INDORE,MADHYA PRADESH,,,,,,,,,,
82279,Mahtma gandhi hr sec school,"Mahtma gandhi hr sec school, A.B Road,Shajapur, M.P. - 465 001",465001,Bloom,Madhya Pradesh Circle,Indore Region,Ujjain Division,Dhillod B.O,BO,Delivery,SHAJAPUR,MADHYA PRADESH,,,,,,,,,,
82280,IES public school bhopal,"IES public school bhopal, IES CAMPUS, Kalkheda Ratibad Main Road, Bhopal - 462044. +91 9229251475.",462044,Bloom,Madhya Pradesh Circle,DivReportingCircle,Bhopal Division,Barkheda Nathu B.O,BO,Delivery,BHOPAL,MADHYA PRADESH,,,,,,,,,,
82286,Pankaj sahu,"Nagin Nagar, Chandan Nagar, Indore, Madhya Pradesh 452006, Phone - 074850 96731",452006,Bloom,Madhya Pradesh Circle,Indore Region,Indore City Division,Army Head Quarter S.O,PO,Delivery,INDORE,MADHYA PRADESH,,,,,,,,,,
82287,Kids college indore,"218/2 Dharnawad, Dhar Road, Indore, Madhya Pradesh 452002",452002,Bloom,Madhya Pradesh Circle,Indore Region,Indore City Division,Indore City 2 S.O,PO,Delivery,INDORE,MADHYA PRADESH,,,,,,,,,,
82288,Arise global Academy,"27/B , Arise global Academy, Indira Gandhi Nagar, Kesar Bagh Road Indore Madhya Pradesh-452009, 7999750399",452009,Bloom,Madhya Pradesh Circle,Indore Region,Indore City Division,Sudama Nagar S.O,PO,Delivery,INDORE,MADHYA PRADESH,,,,,,,,,,
82300,Adarsh Vidhyapeeth,"ADARSH VIDHYAPEETH HIGHER SECONDARY SCHOOL Sushila Sadan, Naya Mohalla Burhanpur, Madhya Pradesh, India 450331, 97540 59016",450331,Bloom,Madhya Pradesh Circle,Indore Region,Khandwa Division,Bahadarpur B.O,BO,Delivery,BURHANPUR,MADHYA PRADESH,,,,,,,,,,
82301,Smt. Kamala Saklecha Gyan Mandir,"Smt. Kamala Saklecha Gyan Mandir Bhanpura Dist: Mandsaur-458 775, Madhyapradesh. · +91-7427-280687 / 236563",458775,Bloom,Madhya Pradesh Circle,Indore Region,Mandsaur Division,Hamirgarh B.O,BO,Delivery,MANDSAUR,MADHYA PRADESH,,,,,,,,,,
82302,Ms agarikala School,"Dasrangpur, Kawardha, Agrikala, 491336, Chhattisgarh, India",491336,Bloom,Chattisgarh Circle,DivReportingCircle,Durg Division,Koko BO,BO,Delivery,KABIRDHAM,CHHATTISGARH,,,,,,,,,,
82304,AVP Global,"AVP Global School Kishore Campus, Plot no. 309-310/3, Khadkod, Jalgaon-Jamod Road, Burhanpur - 450331, +91 79990 87076",450331,Bloom,Madhya Pradesh Circle,Indore Region,Khandwa Division,Bahadarpur B.O,BO,Delivery,BURHANPUR,MADHYA PRADESH,,,,,,,,,,
82306,Lakewood international school Ritwik pathak,"140/1,Bisnavda,Airport Road, Bisnavda, Madhya Pradesh 453112, 9930073255",453112,Bloom,Madhya Pradesh Circle,Indore Region,Indore Moffusil Division,Jamburdi Hapsi B.O,BO,Delivery,INDORE,MADHYA PRADESH,,,,,,,,,,
82307,Achieve Heights Pre School,"Achieve Heights Pre School, Address : MS – 10 Ratnapuri 80 feet Hanuman Tal Road, Ratlam, Madhya Pradesh, India, 457001 ; Phone No. :9907302010.",457001,Bloom,Madhya Pradesh Circle,Indore Region,Ratlam Division,Dhamnod B.O,BO,Delivery,RATLAM,MADHYA PRADESH,,,,,,,,,,
82308,DBS PUBLIC SCHOOL,"19-Rani Palace, Dhar Rd, Geeta Nagar, Indore, Madhya Pradesh 452002, 9827043854",452002,Bloom,Madhya Pradesh Circle,Indore Region,Indore City Division,Indore City 2 S.O,PO,Delivery,INDORE,MADHYA PRADESH,,,,,,,,,,
82310,Vrashali Singh,"Buranakhedi, Kanadia Road, Dist.Indore, Somdeep International School PIN Code: 452016",452016,Bloom,Madhya Pradesh Circle,Indore Region,Indore City Division,Buranakhedi B.O,BO,Delivery,INDORE,MADHYA PRADESH,,,,,,,,,,
82311,Catalyst World School,"Catalyst World School, Bicholi Mardana, Ambamoliya Bypass Road, Indore - 452010, Phone - +91 9753333041/+91 9753333611",452010,Bloom,Madhya Pradesh Circle,Indore Region,Indore City Division,Vijay Nagar S.O,PO,Delivery,INDORE,MADHYA PRADESH,,,,,,,,,,
82313,Malav bharti school,"523/2, Tikariya Rd, Nanda Nagar, Kamala Nehru Nagar, Indore, Madhya Pradesh 452015 (",452015,Bloom,Madhya Pradesh Circle,Indore Region,Indore City Division,Industrial Estate S.O (Indore),PO,Delivery,INDORE,MADHYA PRADESH,,,,,,,,,,
82316,Aajinkya khare,"455, Bapu Gandhi Nagar, Scheme No 114, Indore, Madhya Pradesh 452010, Phone - 093008 22655",452010,Bloom,Madhya Pradesh Circle,Indore Region,Indore City Division,Vijay Nagar S.O,PO,Delivery,INDORE,MADHYA PRADESH,,,,,,,,,,
82319,New Amazing Angels Public School,"211, Patel Mohalla, Samrat Nagar, Khajrana, Indore, Madhya Pradesh 452016",452016,Bloom,Madhya Pradesh Circle,Indore Region,Indore City Division,Buranakhedi B.O,BO,Delivery,INDORE,MADHYA PRADESH,,,,,,,,,,
82320,Dr M B Khan,"187, Bhagora Road, New Guradiya, Mhow, Indore, Madhya Pradesh, Pincode: 453441, Phone - +91 9111136883,+91 9926085992",453441,Bloom,Madhya Pradesh Circle,Indore Region,Indore Moffusil Division,Bhagora B.O,BO,Delivery,INDORE,MADHYA PRADESH,,,,,,,,,,
82321,Jitendra Bal Vinay Mandir,"577/10 D Nand Bagh Colony, Kasera Bazar, Indore - 452001",452001,Bloom,Madhya Pradesh Circle,Indore Region,Indore City Division,Indore G.P.O.,HO,Delivery,INDORE,MADHYA PRADESH,,,,,,,,,,
82322,Bhandari public school,"Bhandari Public School Near B.T College, Sihada Road Khandwa 450001 (M.P), +91-9479884057 0733-2249884, 2249784",450001,Bloom,Madhya Pradesh Circle,Indore Region,Khandwa Division,Temi Khurd B.O,BO,Delivery,EAST NIMAR,MADHYA PRADESH,,,,,,,,,,
82323,Bal gokulam,"8, Akshay Deep Colony, MR 9 Road, LIG Colony, Indore, Madhya Pradesh 452011, India, Phone - 077718 77767 / 077708 77767",452011,Bloom,Madhya Pradesh Circle,Indore Region,Indore City Division,Nanda Nagar S.O,PO,Delivery,INDORE,MADHYA PRADESH,,,,,,,,,,
82324,Shree Swami Ramanand Vidya Sankul,"SHREE SWAMI RAMANAND VIDYA SANKUL RAMTEKRI TAPOVAN VILL.- SOPRA,CHACHODA, Sopra, Madhya Pradesh 473115,",473115,Bloom,Madhya Pradesh Circle,DivReportingCircle,Guna Division,Patondi B.O,BO,Delivery,GUNA,MADHYA PRADESH,,,,,,,,,,
82326,Chalk and Duster a play school and dayca,"shalimar palms, 06 sharthak street Near sanjana park and, Road, near J V Collection, Bicholi Mardana, Indore, Madhya Pradesh 452016",452016,Bloom,Madhya Pradesh Circle,Indore Region,Indore City Division,Buranakhedi B.O,BO,Delivery,INDORE,MADHYA PRADESH,,,,,,,,,,
82328,Shiva academy,"Ranmalbiluod, Madhya Pradesh 453001",453001,Bloom,Madhya Pradesh Circle,Indore Region,Indore Moffusil Division,Kalaria B.O,BO,Delivery,INDORE,MADHYA PRADESH,,,,,,,,,,
82330,Shaurya saraf,"AB Road, Rau, Opposite Akashwani, Indore, MP, India – 453 331, Phone - +91-8720009992 / 93",453331,Bloom,Madhya Pradesh Circle,Indore Region,Indore Moffusil Division,Rangwasa B.O,BO,Delivery,INDORE,MADHYA PRADESH,,,,,,,,,,
82331,The Aditya Birla Public School,"The Aditya Birla Public School Dahej Road, Kesrol, P.O. - Eksal, Bharuch, Gujarat, PIN - 392130, +91-9904203311",392130,Bloom,Gujarat Circle,Vadodara Region,Bharuch Division,Manad BO,BO,Delivery,BHARUCH,GUJARAT,,,,,,,,,,
82333,Innovator school,"Rau, 194, Braj Vihar Colony, Indore, Madhya Pradesh 453331, Phone - 090090 20606",453331,Bloom,Madhya Pradesh Circle,Indore Region,Indore Moffusil Division,Rangwasa B.O,BO,Delivery,INDORE,MADHYA PRADESH,,,,,,,,,,
82335,Edara Nagapavan,"Flat No. 402, Maruthi Jewel, Hari Hara Constructions, Near Sushma Theater, Kranthi Hills, Vanasthalipuram,I-Icon Academy, Hyderabad, Andhra Pradesh,PIN-500070",500070,Bloom,Telangana Circle,Hyderabad City Region,Hyderabad South East Division,Vanasthalipuram S.O,PO,Delivery,RANGA REDDY,TELANGANA,,,,,,,,,,
82337,Acropolis,"Acropolis Institute of Technology and Research, Bypass Road, Manglia Square, Manglia, Indore, Madhya Pradesh-453771, India, Phone - 0731-4730000, 4730001",453771,Bloom,Madhya Pradesh Circle,Indore Region,Indore Moffusil Division,Dakachiya B.O,BO,Delivery,INDORE,MADHYA PRADESH,,,,,,,,,,
82339,Satya Sai Vidya Vihar,"Scheme No. 54, A.B. Road, Vijay Nagar, 01, Sector A, Slice 6, Aranya Nagar, Vijay Nagar, Indore, Madhya Pradesh 452010 : 0731-2553023",452010,Bloom,Madhya Pradesh Circle,Indore Region,Indore City Division,Vijay Nagar S.O,PO,Delivery,INDORE,MADHYA PRADESH,,,,,,,,,,
82340,Busybuddies Pre School,"MR-4 Rd, near Daryani classes, Yadav Colony, Jabalpur, Madhya Pradesh 482001 Phone: 075819 99900",482001,Bloom,Madhya Pradesh Circle,Jabalpur Region,Jabalpur Division,Tilsani B.O,BO,Delivery,JABALPUR,MADHYA PRADESH,,,,,,,,,,
82341,Brilliant Academy,"E-409, Malvi Nagar, Shyam Nagar Annex A, Sukhlia, Indore, Madhya Pradesh 452010, Phone - 092851 33118",452010,Bloom,Madhya Pradesh Circle,Indore Region,Indore City Division,Vijay Nagar S.O,PO,Delivery,INDORE,MADHYA PRADESH,,,,,,,,,,
82343,Jd School,"Junior Jd School Ujjain, Word No. 39 (pincode: 456010), Hss Girls Dhanmandi, Ujjain Urban, Ujjain , Madhya Pradesh.",456010,Bloom,Madhya Pradesh Circle,Indore Region,Ujjain Division,Ujjain M.L.Nagar S.O,PO,Delivery,UJJAIN,MADHYA PRADESH,,,,,,,,,,
82345,Sukun India,"Sukun India, 70C, Suvidhi Nagar, MR 5, Super Corridor 452005 Indore, Madhya Pradesh, India, 8602125015",452005,Bloom,Madhya Pradesh Circle,Indore Region,Indore City Division,Bijasan Road S.O,PO,Delivery,INDORE,MADHYA PRADESH,,,,,,,,,,
82347,Sikka,"Plot. 17 & 17A, Phase – II Scheme No. 78, INDORE – 452010, Phone no - (+)91 731 2577254, 2577271",452010,Bloom,Madhya Pradesh Circle,Indore Region,Indore City Division,Vijay Nagar S.O,PO,Delivery,INDORE,MADHYA PRADESH,,,,,,,,,,
82350,Regel Cambridge Academy,"155/4, Sundar Nagar, Sanwer Rd, Banganga, Indore, Madhya Pradesh 452015, Phone - 9425089724 / 9977577775",452015,Bloom,Madhya Pradesh Circle,Indore Region,Indore City Division,Industrial Estate S.O (Indore),PO,Delivery,INDORE,MADHYA PRADESH,,,,,,,,,,
82353,Rigal School,"155/4, Sundar Nagar, Sanwer Rd, Banganga, Indore, Madhya Pradesh 452015, Phone - 94250 89724",452015,Bloom,Madhya Pradesh Circle,Indore Region,Indore City Division,Industrial Estate S.O (Indore),PO,Delivery,INDORE,MADHYA PRADESH,,,,,,,,,,
82357,Kinder Buds School,"44, Kranti Kriplani Nagar, Indore, Madhya Pradesh 452009, Tel: +91-9993834881",452009,Bloom,Madhya Pradesh Circle,Indore Region,Indore City Division,Sudama Nagar S.O,PO,Delivery,INDORE,MADHYA PRADESH,,,,,,,,,,
82359,Indore Convet Her Sec School,"Banganga, Maharana Pratap Nagar Indore, Madhya Pradesh 452015",452015,Bloom,Madhya Pradesh Circle,Indore Region,Indore City Division,Industrial Estate S.O (Indore),PO,Delivery,INDORE,MADHYA PRADESH,,,,,,,,,,
82360,The Legacy world school,"225, Airport Rd, Dwarkadhish Colony, Panchsheel Nagar, Indore, Madhya Pradesh 452005",452005,Bloom,Madhya Pradesh Circle,Indore Region,Indore City Division,Bijasan Road S.O,PO,Delivery,INDORE,MADHYA PRADESH,,,,,,,,,,
82363,Little Cipur School,"Mahalaxmi Branch: MR 4/161, Near Bombay Hospital, Indore 9893276696 pincode - 452010",452010,Bloom,Madhya Pradesh Circle,Indore Region,Indore City Division,Vijay Nagar S.O,PO,Delivery,INDORE,MADHYA PRADESH,,,,,,,,,,
82364,The Shishukunj International School,"Jhalaria, Bypass Road, Indore, 452016, Madhya Pradesh, India, 9111104781/82, 9644733315/16",452016,Bloom,Madhya Pradesh Circle,Indore Region,Indore City Division,Buranakhedi B.O,BO,Delivery,INDORE,MADHYA PRADESH,,,,,,,,,,
82365,Prudential Kids Her Sec School,"Near Tirumala Greens, Behind DPS School, Nipaniya, Indore,PIN-452010",452010,Bloom,Madhya Pradesh Circle,Indore Region,Indore City Division,Vijay Nagar S.O,PO,Delivery,INDORE,MADHYA PRADESH,,,,,,,,,,
82367,Kiddy Paradise School,"kiddy paradise school, infront of kavi pradip udhyan barnagar barnagar, ujjain, Madhya Pradesh 456771 India, 084350 16969",456771,Bloom,Madhya Pradesh Circle,Indore Region,Ujjain Division,Amla B.O,BO,Delivery,UJJAIN,MADHYA PRADESH,,,,,,,,,,
82368,The Wonder Years School,"142, Dhanwantri Nagar, Rajendra Nagar, Indore, Madhya Pradesh 452001",452001,Bloom,Madhya Pradesh Circle,Indore Region,Indore City Division,Indore G.P.O.,HO,Delivery,INDORE,MADHYA PRADESH,,,,,,,,,,
82369,The Wizz Kids Preschool & Activity Club,"102, Sampat Farms, Opposite Grande Exotica, Bicholi Mardana, Indore (M.P), Phone - (+91) 9111499119, 9111099119 PIN- 452016",452016,Bloom,Madhya Pradesh Circle,Indore Region,Indore City Division,Buranakhedi B.O,BO,Delivery,INDORE,MADHYA PRADESH,,,,,,,,,,
82370,The Academic City,"Mohankheda Jain Tirth, Rajgarh (Dhar), Manglia, 453771",453771,Bloom,Madhya Pradesh Circle,Indore Region,Indore Moffusil Division,Dakachiya B.O,BO,Delivery,INDORE,MADHYA PRADESH,,,,,,,,,,
82374,Shishu kunj International School,"The Shishukunj International School – North Campus CBSE Affiliation No. 1031254 Gram Badodia Ema, Behind Vishwanath Dham, 453111, Indore – Ujjain Road, Indore Phone NO: +91 6262628311, +91 6262628312 Landline NO: 0732 1299017",453111,Bloom,Madhya Pradesh Circle,Indore Region,Indore Moffusil Division,Alwasa B.O,BO,Delivery,INDORE,MADHYA PRADESH,,,,,,,,,,
82376,Kids Foundation,"70, Moon Palace Colony, Behind Annapurna Thana, Indore, India, 452009, Phone - 0731 498 3455",452009,Bloom,Madhya Pradesh Circle,Indore Region,Indore City Division,Sudama Nagar S.O,PO,Delivery,INDORE,MADHYA PRADESH,,,,,,,,,,
82380,Sri Sathya Sai Vidya Vihar,"Scheme No. 54, A.B. Road Indore PIN-452010.",452010,Bloom,Madhya Pradesh Circle,Indore Region,Indore City Division,Vijay Nagar S.O,PO,Delivery,INDORE,MADHYA PRADESH,,,,,,,,,,
82381,Vedaant Vidhyakulum,"Vedaant Vidhyakulum, Kanadia Road, Village Barodiya Kera,Indore, Kara, Village Barodia, Kanadia Main Rd, Indore, Madhya Pradesh 452016 MP, 82259 55500",452016,Bloom,Madhya Pradesh Circle,Indore Region,Indore City Division,Buranakhedi B.O,BO,Delivery,INDORE,MADHYA PRADESH,,,,,,,,,,
82383,Prarambh School,"212/4, AB Rd, opp. Panchvati Colony, Talawali Chanda, Indore, Madhya Pradesh 453771, Phone - 09993870864",453771,Bloom,Madhya Pradesh Circle,Indore Region,Indore Moffusil Division,Dakachiya B.O,BO,Delivery,INDORE,MADHYA PRADESH,,,,,,,,,,
82389,St. Mary Champion H S School,"St.Mary Champion School, Navdapanth , Dhar Road, Indore, Phone - 9981995901, 6264901856, PIN-452009",452009,Bloom,Madhya Pradesh Circle,Indore Region,Indore City Division,Sudama Nagar S.O,PO,Delivery,INDORE,MADHYA PRADESH,,,,,,,,,,
82390,Shree Sanskar academy,Academy Road Agar Disst. Agar Malwa (M.P.)465441,465441,Bloom,Madhya Pradesh Circle,Indore Region,Ujjain Division,Bapcha B.O,BO,Delivery,AGAR MALWA,MADHYA PRADESH,,,,,,,,,,
82393,Indore Institute of Pharmacy,"Pithampur Road, Indore - 453331, Madhya Pradesh, India Contact Number: 18001033069",453331,Bloom,Madhya Pradesh Circle,Indore Region,Indore Moffusil Division,Rangwasa B.O,BO,Delivery,INDORE,MADHYA PRADESH,,,,,,,,,,
82394,Patidar International SchoolNilima Vakil,"Patidar International School Umia Hills, Maxi Rd, Tajpur, Madhya Pradesh 456010, +91 7880008056, +91 7880008057",456010,Bloom,Madhya Pradesh Circle,Indore Region,Ujjain Division,Ujjain M.L.Nagar S.O,PO,Delivery,UJJAIN,MADHYA PRADESH,,,,,,,,,,
82395,Divine kids school,"Khatipura, New Gouri Nagar, Sukhlia, Indore, Madhya Pradesh 452003, 9687040305",452003,Bloom,Madhya Pradesh Circle,Indore Region,Indore City Division,Vallabhnagar S.O (Indore),PO,Delivery,INDORE,MADHYA PRADESH,,,,,,,,,,
82396,Gyan Sagar Girls International,"Sector B, Kalani Bagh, DEWAS, Madhya Pradesh, Phone - 455001 INDIA, Phone No.: +91 – 7272 – 250001, +91- 7272- 796206",455001,Bloom,Madhya Pradesh Circle,Indore Region,Indore Moffusil Division,Bairagarh B.O,BO,Delivery,DEWAS,MADHYA PRADESH,,,,,,,,,,
82398,Edify school,"Mandsaur Bypass, Near Guradiya Balaji Temple, Mandsaur, Madhya Pradesh-458001, Phone - 08370006805",458001,Bloom,Madhya Pradesh Circle,Indore Region,Mandsaur Division,Mandsaur H.O,HO,Delivery,MANDSAUR,MADHYA PRADESH,,,,,,,,,,
82399,Oscar Daycare and Preschool,"D-13,H.I.G,RSS Shukla nagar behind shopping complex, A.B Road,, HIG Main Road, Indore, Madhya Pradesh - 452011, : 9755657777",452011,Bloom,Madhya Pradesh Circle,Indore Region,Indore City Division,Nanda Nagar S.O,PO,Delivery,INDORE,MADHYA PRADESH,,,,,,,,,,
82400,SANDIPANI ACADEMY Mandleshwar,"Sandipani Academy Maheshwar Road, Mandleshwar, Pin-451221 Dist- Khargone(MP) India +91 7610489296 +91 7610489297",451221,Bloom,Madhya Pradesh Circle,Indore Region,Khandwa Division,Bablai B.O,BO,Delivery,KHARGONE,MADHYA PRADESH,,,,,,,,,,
82402,Ideal International School,"Govind Colony Main Road, Infront of Sch. No.51 Near Kamla Nehru Colony, West Indore Madhya Pradesh - 452015, Whatsapp - 9644200400, Phone - +91 9644200900, Landline - 0731 - 2617600, 0731 - 2617700",452015,Bloom,Madhya Pradesh Circle,Indore Region,Indore City Division,Industrial Estate S.O (Indore),PO,Delivery,INDORE,MADHYA PRADESH,,,,,,,,,,
82403,Columbia Convent school,"Manavta Nagar, Kanadia Road, Indore (M.P.) INDIA – 452016, Phone No +91 731 -2845444, 2845249, Mobile No +91-98267-37370",452016,Bloom,Madhya Pradesh Circle,Indore Region,Indore City Division,Buranakhedi B.O,BO,Delivery,INDORE,MADHYA PRADESH,,,,,,,,,,
82404,Kanwartara Public H.s School,"Shrinagar Colony Extn., Barwaha Road, Mandleshwar (451221), Madhya Pradesh",451221,Bloom,Madhya Pradesh Circle,Indore Region,Khandwa Division,Bablai B.O,BO,Delivery,KHARGONE,MADHYA PRADESH,,,,,,,,,,
82406,Daly College,"1, Residency Area, Indore, Madhya Pradesh 452001",452001,Bloom,Madhya Pradesh Circle,Indore Region,Indore City Division,Indore G.P.O.,HO,Delivery,INDORE,MADHYA PRADESH,,,,,,,,,,
82409,Ladybird school,"159KA, Ilyas Colony Rd, Shalimar Colony, Khajrana, Indore, Madhya Pradesh 452016, Phone: 090095 46186",452016,Bloom,Madhya Pradesh Circle,Indore Region,Indore City Division,Buranakhedi B.O,BO,Delivery,INDORE,MADHYA PRADESH,,,,,,,,,,
82410,Renaissance University,"Campus Gram Revti, Behind Aurobindo Hospital Sanwer-Ujjain Road, Indore (M.P.) - 452015. Office 201-202, HeadQuarter Building, IDA Plot no. 54, Satya Sai Square, Indore (M.P.) - 452010",452015,Bloom,Madhya Pradesh Circle,Indore Region,Indore City Division,Industrial Estate S.O (Indore),PO,Delivery,INDORE,MADHYA PRADESH,,,,,,,,,,
82412,Royal Raman Academy,"M 176 BHAWANI NAGAR ,Ward No.7, Indore Urban Indore, Madhya Pradesh PIN Code: 452001 (INDIA) (website)",452001,Bloom,Madhya Pradesh Circle,Indore Region,Indore City Division,Indore G.P.O.,HO,Delivery,INDORE,MADHYA PRADESH,,,,,,,,,,
82414,Choithram school,"Choithram School, 5 Manik Bagh Road, Indore, Madhya Pradesh 452014 (M.P.), 0731-2475252-53-54",452014,Bloom,Madhya Pradesh Circle,Indore Region,Indore City Division,Khatiwala Tank S.O,PO,Delivery,INDORE,MADHYA PRADESH,,,,,,,,,,
82418,Castlewood Pre School,"Castlewood International Pre School, 6 Ext Rajmahal Colony, Manik Bagh Road, Near 6 Bunglows, Indore, Indore, India, 452001, Phone - 088199 77111",452001,Bloom,Madhya Pradesh Circle,Indore Region,Indore City Division,Indore G.P.O.,HO,Delivery,INDORE,MADHYA PRADESH,,,,,,,,,,
82419,Ideal Academy,"Avantika, Scheme No. 51, Near Marimata Square, West Indore, Madhya Pradesh 452006, Phone - 0731-2617400, 0731-2617500, WhatsApp - 94250 82107, 94250 55794",452006,Bloom,Madhya Pradesh Circle,Indore Region,Indore City Division,Army Head Quarter S.O,PO,Delivery,INDORE,MADHYA PRADESH,,,,,,,,,,
82420,Anshuman HS School,"The Daly College, 1, Residency Area, Indore, Madhya Pradesh 452001, 91 (0731) 2719000, 2719001, 2719023",452001,Bloom,Madhya Pradesh Circle,Indore Region,Indore City Division,Indore G.P.O.,HO,Delivery,INDORE,MADHYA PRADESH,,,,,,,,,,
82423,Delhi Public School,"Delhi Public School, Pipliakumar – Nipania Road, Village – Nipania, Indore 452010 (M.P), Phone - 0731-2444401 / 9109384463",452010,Bloom,Madhya Pradesh Circle,Indore Region,Indore City Division,Vijay Nagar S.O,PO,Delivery,INDORE,MADHYA PRADESH,,,,,,,,,,
82424,Banyan Tree school,"Bisankhedi, Bhadbhada-Suraj Nagar Road, Ahead of Sports Authority of India, Bhopal, Madhya Pradesh 462044, Phone: +918989120736, +917746034885",462044,Bloom,Madhya Pradesh Circle,DivReportingCircle,Bhopal Division,Barkheda Nathu B.O,BO,Delivery,BHOPAL,MADHYA PRADESH,,,,,,,,,,
82425,MIT World Peace School,"Gat No. 296/297, Gandhi Nagar, Opp to HP Petrol Pump, Indore 453112 (MP)",453112,Bloom,Madhya Pradesh Circle,Indore Region,Indore Moffusil Division,Jamburdi Hapsi B.O,BO,Delivery,INDORE,MADHYA PRADESH,,,,,,,,,,
82427,Asmakam Life University,"Asmakam Life University, 22 Sunshine Farms, A.B. Road, Indore 452012 (M.P.), +91-7723837600",452012,Bloom,Madhya Pradesh Circle,Indore Region,Indore City Division,Rajendra Nagar S.O (Indore),PO,Delivery,INDORE,MADHYA PRADESH,,,,,,,,,,
82428,Dfly International,"Indore 402,Diamond Trade Center, Janjeerwala Square, New Palasia, Indore 452001,",452001,Bloom,Madhya Pradesh Circle,Indore Region,Indore City Division,Indore G.P.O.,HO,Delivery,INDORE,MADHYA PRADESH,,,,,,,,,,
82429,Birla Open Minds International School,"Address 1 : Jhalaria Road, Off Bypass Road,Near County Walk Township,Indore, Madhya Pradesh - 452016. Address 2 : MR-10 Toll Plaza Bridge, Next to Nirvana Resort, Kumedi - Indore, Madhya Pradesh - 453555, Phone : +91 9109444977 , +91 9522272090.",452016,Bloom,Madhya Pradesh Circle,Indore Region,Indore City Division,Buranakhedi B.O,BO,Delivery,INDORE,MADHYA PRADESH,,,,,,,,,,
82430,Prestige Group,"Prestige Vihar’, Sch. No. 74-C, Sector D Vijay Nagar,Indore – 10 , M.P. (India) Phone +91-731- 4016666, 4016602, 4016625 Fax +91-731- 4016633,PIN-452010",452010,Bloom,Madhya Pradesh Circle,Indore Region,Indore City Division,Vijay Nagar S.O,PO,Delivery,INDORE,MADHYA PRADESH,,,,,,,,,,
82431,Sanmati School,"Doordarshan Kendra, Residency, White Church Colony, Residency Area, Indore, Madhya Pradesh 452001 (Sanmati Higher Secondary School)",452001,Bloom,Madhya Pradesh Circle,Indore Region,Indore City Division,Indore G.P.O.,HO,Delivery,INDORE,MADHYA PRADESH,,,,,,,,,,
82438,Agraval public school,"Agraval public school, Bicholi Mardana Road Indore 452016 (M.P.) Email: info@apsindore.com Phone: 0731-4212666",452016,Bloom,Madhya Pradesh Circle,Indore Region,Indore City Division,Buranakhedi B.O,BO,Delivery,INDORE,MADHYA PRADESH,,,,,,,,,,
82440,Knowledge Buddy Learning Academy,"346-A Second Floor, Mahalaxmi Nagar ,Indore, 452001 saurabhkhadiwal@gmail.com Mob: 7247511399",452001,Bloom,Madhya Pradesh Circle,Indore Region,Indore City Division,Indore G.P.O.,HO,Delivery,INDORE,MADHYA PRADESH,,,,,,,,,,
82441,Nahar Global school,"Sagod Rd, opposite Jayant Sen Dham, Ratlam, Madhya Pradesh 457001 contact number - 09479792429",457001,Bloom,Madhya Pradesh Circle,Indore Region,Ratlam Division,Dhamnod B.O,BO,Delivery,RATLAM,MADHYA PRADESH,,,,,,,,,,
82442,Al-Hira Public School,"58-59 J, Aamwala Road, Dhar Road, Indore - 452002 (Chandan Nagar)",452002,Bloom,Madhya Pradesh Circle,Indore Region,Indore City Division,Indore City 2 S.O,PO,Delivery,INDORE,MADHYA PRADESH,,,,,,,,,,
82444,KRISHNA ACADEMY,"KRISHANA ACADEMY DHARGAON TEH.MAHESHWAR DISTT.KHARGONE(M.P.) 451221, 8120709899,8717877855",451221,Bloom,Madhya Pradesh Circle,Indore Region,Khandwa Division,Bablai B.O,BO,Delivery,KHARGONE,MADHYA PRADESH,,,,,,,,,,
82445,Nirmal international school,"NIRMAL INTERNATIONAL SCHOOL, NAJARPUR - TARANA, ROAD, Bichrod, Madhya Pradesh 456665, 8989838778",456665,Bloom,Madhya Pradesh Circle,Indore Region,Ujjain Division,Khajuria B.O,BO,Delivery,UJJAIN,MADHYA PRADESH,,,,,,,,,,
82446,Springfield World School,"Springfield World School Opposite ITC Choupal, Lashkarpur Road, Vidisha 464001 (M.P.) India T: +91-7592 297 070 / M: +91-9179001197",464001,Bloom,Madhya Pradesh Circle,DivReportingCircle,Vidisha Division,Khari B.O,BO,Delivery,VIDISHA,MADHYA PRADESH,,,,,,,,,,
82447,Jyoti Senior secondary school Rewa,"NH - 7, Allahabad Rewa Road, Rewa, Madhya Pradesh - 486001",486001,Bloom,Madhya Pradesh Circle,Jabalpur Region,Rewa Division,Rewa H.O,HO,Delivery,REWA,MADHYA PRADESH,,,,,,,,,,
82448,Excellent academy,"107, Gulab Bagh, Dewas Naka, Lasudia Mori, Indore, Madhya Pradesh 452010, Phone - 0731 405 5154",452010,Bloom,Madhya Pradesh Circle,Indore Region,Indore City Division,Vijay Nagar S.O,PO,Delivery,INDORE,MADHYA PRADESH,,,,,,,,,,
82449,Gyan carnival school,"13, Main Road, Clerk Colony, Indore, Madhya Pradesh 452011",452011,Bloom,Madhya Pradesh Circle,Indore Region,Indore City Division,Nanda Nagar S.O,PO,Delivery,INDORE,MADHYA PRADESH,,,,,,,,,,
82450,Dastak public school,"82, Sector H, Green Park Colony, Indore, Madhya Pradesh 452006",452006,Bloom,Madhya Pradesh Circle,Indore Region,Indore City Division,Army Head Quarter S.O,PO,Delivery,INDORE,MADHYA PRADESH,,,,,,,,,,
82451,Little Champs school,"62, Aerodrum Rd, Ambikapuri Main, Indore, Madhya Pradesh 452006",452006,Bloom,Madhya Pradesh Circle,Indore Region,Indore City Division,Army Head Quarter S.O,PO,Delivery,INDORE,MADHYA PRADESH,,,,,,,,,,
82452,San Thome Academy,"San Thome Academy, Bhopal Road, Dewas, Madhya Pradesh - 455001",455001,Bloom,Madhya Pradesh Circle,Indore Region,Indore Moffusil Division,Bairagarh B.O,BO,Delivery,DEWAS,MADHYA PRADESH,,,,,,,,,,
82453,Medi-Caps University,"Medi-Caps University A.B. Road, Pigdamber, Rau Indore - 453331 07313111500 , 07313111501",453331,Bloom,Madhya Pradesh Circle,Indore Region,Indore Moffusil Division,Rangwasa B.O,BO,Delivery,INDORE,MADHYA PRADESH,,,,,,,,,,
82455,Bhaskar Academy,"Bhaskar Academy,Ringnodiya Square, Sanwer Road, Ujjain – Indore Rd, at, Indore, Madhya Pradesh 453551, 9258133119 & 9644282009",453551,Bloom,Madhya Pradesh Circle,Indore Region,Indore Moffusil Division,Ajnod B.O,BO,Delivery,INDORE,MADHYA PRADESH,,,,,,,,,,
82457,Progressive Heights,"Progressive Kidz Sudama Nagar, Biaora District Rajgarh 465674 (M.P) +91 9425422448",465674,Bloom,Madhya Pradesh Circle,Indore Region,Sehore Division,Baiheda B.O,BO,Delivery,RAJGARH,MADHYA PRADESH,,,,,,,,,,
82461,Mar Thoma Higher Secondary School,"Sector C, Sukhliya, Nayay Nagar, Main Road, Indore (M.P.)-452010",452010,Bloom,Madhya Pradesh Circle,Indore Region,Indore City Division,Vijay Nagar S.O,PO,Delivery,INDORE,MADHYA PRADESH,,,,,,,,,,
82462,"Shri Jaigovind Gopinath H. S School, Mho","49, PEET ROAD NEAR RAILWAY STATION, MHOW, 07324-299323, PIN-453441",299323,Bloom,,,,,,,,,,,,,,,,,,
82463,Sri Sri Ravishankar Vidya Mandir Indore,"Sri Sri Ravishankar Vidya Mandir Village Sanawadia, Behind Devguradiya Temple, Nemawar Road, Indore-452016, Madhya Pradesh, India, 8889010888, 07312863100, 07312863300",452016,Bloom,Madhya Pradesh Circle,Indore Region,Indore City Division,Buranakhedi B.O,BO,Delivery,INDORE,MADHYA PRADESH,,,,,,,,,,
82464,Eva World School,"Mayakhedi, Opp. Omaxe City-1, Bypass Road, Near Vistara Township, Indore MP 452010, Phone - +91 9111040700, 9111040800",452010,Bloom,Madhya Pradesh Circle,Indore Region,Indore City Division,Vijay Nagar S.O,PO,Delivery,INDORE,MADHYA PRADESH,,,,,,,,,,
82466,Angels Planet,"Angels Planet, Rameshwar Nagar, Khandwa, Madhya Pradesh 450001, Phone - 9827211335",450001,Bloom,Madhya Pradesh Circle,Indore Region,Khandwa Division,Temi Khurd B.O,BO,Delivery,EAST NIMAR,MADHYA PRADESH,,,,,,,,,,
82467,St. Jones,"Maharana Pratap Teraha, Jabalpur Naka, Shrivastav Colony, Vaishali Nagar, Damoh, Madhya Pradesh 470661, 07812-221658 +91 8109724606",470661,Bloom,Madhya Pradesh Circle,Jabalpur Region,Sagar Division,Bangaon B.O,BO,Delivery,DAMOH,MADHYA PRADESH,,,,,,,,,,
82469,Sausar public school,"Ward no. 08 Anjakar Colony, Sausar, Dist. Chhindwara (M.P.) 480106 India, Phone - 09752607977 / 08251868259",480106,Bloom,Madhya Pradesh Circle,Jabalpur Region,Chhindwara Division,Devi B.O,BO,Delivery,CHHINDWARA,MADHYA PRADESH,,,,,,,,,,
82470,Satya sai english school,"24A, AB Rd, Vasant Vihar Colony, Vijay Nagar, Indore, Madhya Pradesh 452010, India, Phone - 0731-2553023",452010,Bloom,Madhya Pradesh Circle,Indore Region,Indore City Division,Vijay Nagar S.O,PO,Delivery,INDORE,MADHYA PRADESH,,,,,,,,,,
82472,Parakh Public H. S. School,"Sanwer, India, 453551, Phone - 098260 66807",453551,Bloom,Madhya Pradesh Circle,Indore Region,Indore Moffusil Division,Ajnod B.O,BO,Delivery,INDORE,MADHYA PRADESH,,,,,,,,,,
82473,Yatharth international school,"136-B, Nagin Nagar Rd, Nagin Nagar near Kalani Nagar, Indore, Madhya Pradesh 452006, Phone: 089822 89888",452006,Bloom,Madhya Pradesh Circle,Indore Region,Indore City Division,Army Head Quarter S.O,PO,Delivery,INDORE,MADHYA PRADESH,,,,,,,,,,
82474,Azad convent high school,"B-48, Tenant Nagar, Ratlam, Madhya Pradesh 457001, India, Phone - 09893520944",457001,Bloom,Madhya Pradesh Circle,Indore Region,Ratlam Division,Dhamnod B.O,BO,Delivery,RATLAM,MADHYA PRADESH,,,,,,,,,,
82475,New Advance public high school,"G172, Sh 27, Pologround Industrial Estate, Nanda Nagar, Malti Vanaspati, Indore, Madhya Pradesh 452015",452015,Bloom,Madhya Pradesh Circle,Indore Region,Indore City Division,Industrial Estate S.O (Indore),PO,Delivery,INDORE,MADHYA PRADESH,,,,,,,,,,
82476,Saint national public school,"433, Chandan Nagar, Indore, Madhya Pradesh 452002",452002,Bloom,Madhya Pradesh Circle,Indore Region,Indore City Division,Indore City 2 S.O,PO,Delivery,INDORE,MADHYA PRADESH,,,,,,,,,,
82478,RAJORIA INTERNATIONAL,"100, Veena Nagar Main Rd, Khati Pura Rd, DDU Nagar, Sukhlia, Indore, Madhya Pradesh 452003",452003,Bloom,Madhya Pradesh Circle,Indore Region,Indore City Division,Vallabhnagar S.O (Indore),PO,Delivery,INDORE,MADHYA PRADESH,,,,,,,,,,
82480,The Learning villa school,"HO -23-C Sangam Nagar, Near Ram Mandir Indore 452006, Phone - 9826532550 7697436916",452006,Bloom,Madhya Pradesh Circle,Indore Region,Indore City Division,Army Head Quarter S.O,PO,Delivery,INDORE,MADHYA PRADESH,,,,,,,,,,
82483,Shree Academy,"Kodariya, Madhya Pradesh, India, Pin Code - 453441, Phone - 09826714193",453441,Bloom,Madhya Pradesh Circle,Indore Region,Indore Moffusil Division,Bhagora B.O,BO,Delivery,INDORE,MADHYA PRADESH,,,,,,,,,,
82487,New Valley Academy,"Mhow, Madhya Pradesh, India, 453441 - 09977784628",453441,Bloom,Madhya Pradesh Circle,Indore Region,Indore Moffusil Division,Bhagora B.O,BO,Delivery,INDORE,MADHYA PRADESH,,,,,,,,,,
82488,Shri ramashraya public h s school,"JRRH+HG9, Saptashrungi Nagar, Indore, Madhya Pradesh 452012",452012,Bloom,Madhya Pradesh Circle,Indore Region,Indore City Division,Rajendra Nagar S.O (Indore),PO,Delivery,INDORE,MADHYA PRADESH,,,,,,,,,,
82489,Gurukul Vidhyadham,"102 Ambikapuri Extension, Behind Aerodrum Police Station Indore ( M.P .), Indore Gpo, Indore - 452001 (Behind Aerodrum Police Station)",452001,Bloom,Madhya Pradesh Circle,Indore Region,Indore City Division,Indore G.P.O.,HO,Delivery,INDORE,MADHYA PRADESH,,,,,,,,,,
82491,"Mount Litera Zee School,Mhow","361/7,Beircha Road, Mhow Madhya Pradesh, PIN-453441, 6262607501,02,03,04",453441,Bloom,Madhya Pradesh Circle,Indore Region,Indore Moffusil Division,Bhagora B.O,BO,Delivery,INDORE,MADHYA PRADESH,,,,,,,,,,
82492,Lioness vidhya mandir school,"Dev Guradia Rd, Near Tejaji Chowk, Near Ponpad Panchayat, Dinesh Nagar, Palda, Indore, Madhya Pradesh 452001",452001,Bloom,Madhya Pradesh Circle,Indore Region,Indore City Division,Indore G.P.O.,HO,Delivery,INDORE,MADHYA PRADESH,,,,,,,,,,
82493,Shree Shanti Vidya Niketan,"355, Dwarkapuri, Indore, Madhya Pradesh 452009",452009,Bloom,Madhya Pradesh Circle,Indore Region,Indore City Division,Sudama Nagar S.O,PO,Delivery,INDORE,MADHYA PRADESH,,,,,,,,,,
82495,St Mary senior secondary school,"St.Mary Champion School Navdapanth , Dhar Road, Indore 452013,",452013,Bloom,Madhya Pradesh Circle,Indore Region,Indore City Division,Indore Cat S.O,PO,Delivery,INDORE,MADHYA PRADESH,,,,,,,,,,
82498,Prestige Public School Indore,"Prestige Vihar’, Sch. No. 74-C, Sector D Vijay Nagar,Indore – 10 , M.P. (India) Phone +91-731- 4016666, 4016602, 4016625,PIN-452010",452010,Bloom,Madhya Pradesh Circle,Indore Region,Indore City Division,Vijay Nagar S.O,PO,Delivery,INDORE,MADHYA PRADESH,,,,,,,,,,
82499,Eurasia International school,"Eurasia International school 87,Anoop Nagar Opposite Mahavir garden Indore - Madhya Pradesh Pincode : 452001, Phone number: 9770044338 Landline: 0731-4020320",452001,Bloom,Madhya Pradesh Circle,Indore Region,Indore City Division,Indore G.P.O.,HO,Delivery,INDORE,MADHYA PRADESH,,,,,,,,,,
82500,Kautilya Educational Academy Dewas,"Kautilya Education Academy,Shajapur A.B. Road(Barwal), SHAJAPUR Dist: SHAJAPUR MADHYA PRADESH - 465001 Phone - 9479766310, 9425123079",465001,Bloom,Madhya Pradesh Circle,Indore Region,Ujjain Division,Dhillod B.O,BO,Delivery,SHAJAPUR,MADHYA PRADESH,,,,,,,,,,
82501,Shikshalay Day Scholar School,"19, Shri Krishna Enclave, Sanwer Road, Indore, India, 452001, Phone - 06232101322",452001,Bloom,Madhya Pradesh Circle,Indore Region,Indore City Division,Indore G.P.O.,HO,Delivery,INDORE,MADHYA PRADESH,,,,,,,,,,
82505,Golden Future Higher Secondary School Sa,"Badodiya khan, Ujjain Rd, Sanwer, Madhya Pradesh 453551",453551,Bloom,Madhya Pradesh Circle,Indore Region,Indore Moffusil Division,Ajnod B.O,BO,Delivery,INDORE,MADHYA PRADESH,,,,,,,,,,
82507,Choithram International,"Choithram International Choithram Hospital Campus 5, Manik Bagh Road Indore MP 452014 +91 731 2360345 +91 731 2360346",452014,Bloom,Madhya Pradesh Circle,Indore Region,Indore City Division,Khatiwala Tank S.O,PO,Delivery,INDORE,MADHYA PRADESH,,,,,,,,,,
82510,Shivajirao Kadam Institute Of technology,"Shivajirao Kadam Group of Institutions, Off Indore Bypass Road, Near Ralamandal Sanctuary, Tillore Khurd, Indore-452020, Madhya Pradesh India, Phone - 9770907113, 9770907100",452020,Bloom,Madhya Pradesh Circle,Indore Region,Indore Moffusil Division,Datoda B.O,BO,Delivery,INDORE,MADHYA PRADESH,,,,,,,,,,
82514,St. Augustin School,"Narmada Nagar Road, Punasa, Dist. Khandwa (MP) 450114, Phone - 9424803492",450114,Bloom,Madhya Pradesh Circle,Indore Region,Khandwa Division,Indhawadi B.O,BO,Delivery,EAST NIMAR,MADHYA PRADESH,,,,,,,,,,
82515,MAA JINWANI PUBLIC SCHOOL,pushpgiri teerth sonkatch dewas MP 455118,455118,Bloom,Madhya Pradesh Circle,Indore Region,Indore Moffusil Division,Khutkheda B.O,BO,Delivery,DEWAS,MADHYA PRADESH,,,,,,,,,,
82516,Brilliant Higher Secondary School,"578, Khatiwala Tank, Indore, Madhya Pradesh 452014 Phone: 0731 409 2864",452014,Bloom,Madhya Pradesh Circle,Indore Region,Indore City Division,Khatiwala Tank S.O,PO,Delivery,INDORE,MADHYA PRADESH,,,,,,,,,,
82517,Unnati Academy,"Address -Unnati Academy, Anu Nagar, Badnawar, Dist. Dhar- 454660 (M.P.), Phone: 8982892018, 9981626161",454660,Bloom,Madhya Pradesh Circle,Indore Region,Indore Moffusil Division,Dhamanna B.O,BO,Delivery,DHAR,MADHYA PRADESH,,,,,,,,,,
82518,Shiksha Shikhar,"Bhumi Survey no.44, Gram Ashapura, Mhow-Mandleshwar Road, Tehsil: Dr Ambedkar nagar (Mhow), District: Indore (M.P.) Pincode - 453441, Mobile: 7471119295",453441,Bloom,Madhya Pradesh Circle,Indore Region,Indore Moffusil Division,Bhagora B.O,BO,Delivery,INDORE,MADHYA PRADESH,,,,,,,,,,
82519,Chaitanya international,"Chaitanya International School, Aastha Palace, behind Gondvale Dham, Dwarkapuri, Indore, Madhya Pradesh 452013",452013,Bloom,Madhya Pradesh Circle,Indore Region,Indore City Division,Indore Cat S.O,PO,Delivery,INDORE,MADHYA PRADESH,,,,,,,,,,
82520,"School of Yoga, DAVV University, Indore","Devi Ahilya Vishwavidyalaya, Nalanda Campus, R. N. T. Marg, Indore (M.P.),India Pin- 452 001 Phone:+91-731-2527532",452001,Bloom,Madhya Pradesh Circle,Indore Region,Indore City Division,Indore G.P.O.,HO,Delivery,INDORE,MADHYA PRADESH,,,,,,,,,,
82521,Shree Balaji Academy,"Satwas Rd, Kannod, Dewas, Madhya Pradesh 455332, Phone - 08435155455",455332,Bloom,Madhya Pradesh Circle,Indore Region,Indore Moffusil Division,Bagankheda B.O,BO,Delivery,DEWAS,MADHYA PRADESH,,,,,,,,,,
82523,Canyon school Beenapur,"Canyon School Beenapur Bhopal [M.P] Pin-code 462030 , +91-755 - 4077726, 4077531",462030,Bloom,Madhya Pradesh Circle,DivReportingCircle,Bhopal Division,Khajuri Sadak B.O,BO,Delivery,BHOPAL,MADHYA PRADESH,,,,,,,,,,
82524,RPL Maheshwari College,"RPL Maheshwari College, 51 Chattribag, Indore, Madhya Pradesh 452002, 9039094111",452002,Bloom,Madhya Pradesh Circle,Indore Region,Indore City Division,Indore City 2 S.O,PO,Delivery,INDORE,MADHYA PRADESH,,,,,,,,,,
82525,Shree Ganesh Convent school,"49 Arvind Nagar Infront Of Shiv Nagar, Musakhedi Indore, Indore Gpo, Indore - 452001,",452001,Bloom,Madhya Pradesh Circle,Indore Region,Indore City Division,Indore G.P.O.,HO,Delivery,INDORE,MADHYA PRADESH,,,,,,,,,,
82526,Sherringwood World School,"4, Gyans Park,Telephone Nagar, Indore-452018, T: +91-7898921212 M: +91 7898900111",452018,Bloom,Madhya Pradesh Circle,Indore Region,Indore City Division,Indore Tillaknagar S.O,PO,Delivery,INDORE,MADHYA PRADESH,,,,,,,,,,
82527,Imperail academy school,"School No 8 Khandwa Naka, Khandwa Road, Indore - 452020",452020,Bloom,Madhya Pradesh Circle,Indore Region,Indore Moffusil Division,Datoda B.O,BO,Delivery,INDORE,MADHYA PRADESH,,,,,,,,,,
82528,Little harvard international school,"Hi link city extension,chota bangarda road Indore, Madhya Pradesh, India 452005 (098267 86797)",452005,Bloom,Madhya Pradesh Circle,Indore Region,Indore City Division,Bijasan Road S.O,PO,Delivery,INDORE,MADHYA PRADESH,,,,,,,,,,
82529,Jubilant group of education,"Ayesha Masjid, 72-73 Geeta Nagar Bhind, Indore, Madhya Pradesh 452006",452006,Hot Lead,Madhya Pradesh Circle,Indore Region,Indore City Division,Army Head Quarter S.O,PO,Delivery,INDORE,MADHYA PRADESH,,,,,,,,,,
82531,Shrikanwartara Pub Hr Sec School Mandles,"Shrinagar Colony Extn., Barwaha Road, Mandleshwar (451221), Madhya Pradesh, 096696 97027",451221,Bloom,Madhya Pradesh Circle,Indore Region,Khandwa Division,Bablai B.O,BO,Delivery,KHARGONE,MADHYA PRADESH,,,,,,,,,,
82534,"Brilliant Brains, The Foundation School","G 237, G Sector, Silicon City, indore, Indore, India, 452012, Phone - 096854 91919",452012,Bloom,Madhya Pradesh Circle,Indore Region,Indore City Division,Rajendra Nagar S.O (Indore),PO,Delivery,INDORE,MADHYA PRADESH,,,,,,,,,,
82536,Elite Public School,"Elite Public school, Indore, India, 452005, Phone - 0731 355 5152",452005,Bloom,Madhya Pradesh Circle,Indore Region,Indore City Division,Bijasan Road S.O,PO,Delivery,INDORE,MADHYA PRADESH,,,,,,,,,,
82537,Angel Hearts Academy,"Address - Nidhivan Colony near Nand Gaun Multi, Indore, Madhya Pradesh 452018, +91 98272 13134 , 0731-2498857,",452018,Bloom,Madhya Pradesh Circle,Indore Region,Indore City Division,Indore Tillaknagar S.O,PO,Delivery,INDORE,MADHYA PRADESH,,,,,,,,,,
82538,Sanjivani Global Academy,Indore Bhopal Highway Bhourasa Sonkatch Dewas 455115,455115,Bloom,Madhya Pradesh Circle,Indore Region,Indore Moffusil Division,Jamgod B.O,BO,Delivery,DEWAS,MADHYA PRADESH,,,,,,,,,,
82539,New World Public school,"348, Dhar Rd, Ammar Nagar, Indore, Madhya Pradesh 452001",452001,Bloom,Madhya Pradesh Circle,Indore Region,Indore City Division,Indore G.P.O.,HO,Delivery,INDORE,MADHYA PRADESH,,,,,,,,,,
82540,Sarashwati Gyan Mandir,"262/3 Shital Nagar, Kushwaha Nagar, Main Road, Indore, Banganga, Indore - 452015 (Near Indore Convent School)",452015,Bloom,Madhya Pradesh Circle,Indore Region,Indore City Division,Industrial Estate S.O (Indore),PO,Delivery,INDORE,MADHYA PRADESH,,,,,,,,,,
82541,Ideal Public School,"Dwarkapuri Colony, Indore, India, 452009, Phone - 098260 45456",452009,Bloom,Madhya Pradesh Circle,Indore Region,Indore City Division,Sudama Nagar S.O,PO,Delivery,INDORE,MADHYA PRADESH,,,,,,,,,,
82556,EDUVERTS COMMUNICATION PRIVATE LIMITED,"Eduvest Connect Pvt Ltd, 3rd Floor, B-1, HIG Main Rd, Nanda Nagar, Indore, Madhya Pradesh 452001",452001,Hot Lead,Madhya Pradesh Circle,Indore Region,Indore City Division,Indore G.P.O.,HO,Delivery,INDORE,MADHYA PRADESH,,,,,,,,,,
82578,"Maharshi Vishwamitra Higher Secondary School, Roopakhedi","Maharshi Vishamitra Hss Rupakhedi
Rupa Khedi 
Tarana, Ujjain (pincode: 456668)
Madhya Pradesh. Contact - 82249 44566",456668,Positive Demo,Madhya Pradesh Circle,Indore Region,Ujjain Division,Kadoudiya B.O,BO,Delivery,UJJAIN,MADHYA PRADESH,,,,,,,,,,
82582,S. D. CENTRAL ACADEMY,"Hata - Deoria Rd, Rampur Buzurg, Uttar Pradesh 274203 Contact number - 9140862702",274203,Positive Demo,Uttar Pradesh Circle,Gorakhpur Region,Deoria Division,Arjun Dumari BO,BO,Delivery,KUSHI NAGAR,UTTAR PRADESH,,,,,,,,,,
82588,Egra Public School,"P.O. Barida, P.S. Egra, Dist.Purba Medinapur, Egra, West Bengal 721429 Contact - 80161 39786",721429,Positive Demo,West Bengal Circle,South Bengal Region,Contai Division,Chhatri BO,BO,Delivery,MEDINIPUR EAST,WEST BENGAL,,,,,,,,,,
82592,BLISS BRITE International School,"In Front Of Water Tank, Jagriti Nagar, Amkhera Road, Adhartal, Jabalpur - 482004, Contact - 70008 00239",482004,Positive Demo,Madhya Pradesh Circle,Jabalpur Region,Jabalpur Division,Khajri B.O,BO,Delivery,JABALPUR,MADHYA PRADESH,,,,,,,,,,
82593,GPS World School,"117 No. Railway Crossing, Indira Nagar, Station Road, Bhatni Deoria 274701 UP, Contact- 8009634407",274701,Positive Demo,Uttar Pradesh Circle,Gorakhpur Region,Deoria Division,Belwa Baboo BO,BO,Delivery,DEORIA,UTTAR PRADESH,,,,,,,,,,
82599,J K Memorial Sen. Sec. School,"Jai Singh Nagar, Ludhiana, Meharban, Punjab 141007 Contact - 8077534854",141007,Positive Demo,Punjab Circle,DivReportingCircle,Ludhiana City Division,Mattewara BO,BO,Delivery,LUDHIANA,PUNJAB,,,,,,,,,,
82600,Celestial International School,"Near: Air Port Chouraha, Balmiki Nagar, Bihar 845107 Contact- 89078 56263",845107,Positive Demo,Bihar Circle,Muzaffarpur Region,West Champaran Division,Laxmipur Bherihari BO,BO,Delivery,PASHCHIM CHAMPARAN,BIHAR,,,,,,,,,,
,,,,GharWapisi,,,,,,,,,,,,,,,,,,
